{
  "language": "Ø§Ù„Ù„ØºØ©",
  "home": {
    "title": "Ramses",
    "welcome": "Ù…Ø±Ø­Ø¨Ù‹Ø§ Ø¨ÙƒÙ… ÙÙŠ Ø±Ø§Ù…Ø³ÙŠØ³ØŒ ØªØ·Ø¨ÙŠÙ‚ÙƒÙ… Ù„Ø£ÙØ±ÙŠÙ‚ÙŠØ§ ÙˆØ§Ù„Ø´Ø±Ù‚ Ø§Ù„Ø£ÙˆØ³Ø·!",
    "startButton": "Ø§Ø¨Ø¯Ø£",
    "terms": "Ø£ÙˆØ§ÙÙ‚ Ø¹Ù„Ù‰ Ø¬Ù…ÙŠØ¹ Ø§Ù„Ø´Ø±ÙˆØ· ÙˆØ§Ù„Ø£Ø­ÙƒØ§Ù…"
  },
  "startAlert": {
    "title": "ØªØ­Ø°ÙŠØ±",
    "alertTermsError": "ÙŠØ±Ø¬Ù‰ Ø§Ù„Ù…ÙˆØ§ÙÙ‚Ø© Ø¹Ù„Ù‰ Ø§Ù„Ø´Ø±ÙˆØ· ÙˆØ§Ù„Ø£Ø­ÙƒØ§Ù…"
  },
  "verification": {
    "okText": "Ø­Ø³Ù†Ø§Ù‹",
    "cancelText": "Ø¥Ù„ØºØ§Ø¡"
  },
  "register": {
    "title": "Ø±Ù‚Ù… Ø§Ù„Ù‡Ø§ØªÙ",
    "body": "ÙŠØ±Ø¬Ù‰ Ø¥Ø¯Ø®Ø§Ù„ Ø±Ù‚Ù… Ù‡Ø§ØªÙÙƒ \n Ù„Ù„Ù…ØªØ§Ø¨Ø¹Ø©",
    "textInput": "Ø±Ù‚Ù… Ø§Ù„Ù‡Ø§ØªÙ",
    "sendCode": "Ø¥Ø±Ø³Ø§Ù„ Ø§Ù„Ø±Ù…Ø²"
  },
  "placeholder": {
    "title": "Ø±Ù‚Ù… Ø§Ù„Ù‡Ø§ØªÙ"
  },
  "invalidNumAlert": {
    "title": "ØªØ­Ø°ÙŠØ±",
    "body": "ØªÙ†Ø³ÙŠÙ‚ Ø±Ù‚Ù… Ø§Ù„Ù‡Ø§ØªÙ ØºÙŠØ± ØµØ§Ù„Ø­"
  },
  "alertConfirm": {
    "title": "ØªØ£ÙƒÙŠØ¯ Ø±Ù‚Ù… Ø§Ù„Ù‡Ø§ØªÙ",
    "body": "Ø³Ù†Ø±Ø³Ù„ Ø±Ù…Ø² Ø§Ù„ØªØ­Ù‚Ù‚ Ø¥Ù„Ù‰ Ø§Ù„Ø±Ù‚Ù… Ø§Ù„ØªØ§Ù„ÙŠ:"
  },
  "membersAlert": {
    "title": "!! ØªØ­Ø°ÙŠØ±",
    "body": "Ù„Ø§ ÙŠÙˆØ¬Ø¯ Ø£Ø¹Ø¶Ø§Ø¡ Ø­ØªÙ‰ Ø§Ù„Ø£Ù†",
    "button": "Ø­Ø³Ù†Ø§Ù‹"
  },
  "codeConfirmation": {
    "title": "Ø£Ø¯Ø®Ù„ Ø±Ù…Ø²Ùƒ",
    "body": "Ø£Ø¯Ø®Ù„ Ø§Ù„Ø±Ù…Ø² Ø§Ù„Ø°ÙŠ ØªÙ… Ø¥Ø±Ø³Ø§Ù„Ù‡ Ø¥Ù„ÙŠÙƒ Ø¹Ø¨Ø± Ø§Ù„Ø±Ø³Ø§Ø¦Ù„ Ø§Ù„Ù‚ØµÙŠØ±Ø© Ø¥Ù„Ù‰ ",
    "body2": "ØŒ Ù„Ø¥ÙƒÙ…Ø§Ù„ Ø§Ù„Ø¹Ù…Ù„ÙŠØ© ",
    "confirmButton": "ØªØ£ÙƒÙŠØ¯",
    "reSendCode": "Ø¥Ø¹Ø§Ø¯Ø© Ø¥Ø±Ø³Ø§Ù„ Ø§Ù„Ø±Ù…Ø²",
    "reSendinCode": "Ø¥Ø¹Ø§Ø¯Ø© Ø§Ù„Ø¥Ø±Ø³Ø§Ù„ ÙÙŠ"
  },
  "success": {
    "body": "ØªÙ… Ø§Ù„ØªØ­Ù‚Ù‚ Ù…Ù† Ø­Ø³Ø§Ø¨Ùƒ Ø¨Ù†Ø¬Ø§Ø­ !!",
    "confirmButton": "Ø§Ø³ØªÙ…Ø±"
  },
  "chatList": {
    "title": "Ø§Ù„Ù…Ø­Ø§Ø¯Ø«Ø§Øª"
  },
  "onBoardProfile": {
    "photo": "Ø£Ø¶Ù ØµÙˆØ±Ø©",
    "name": "Ø§Ù„Ø§Ø³Ù…",
    "nickname": "Ø§Ù„Ù„Ù‚Ø¨",
    "gender": "Ø§Ù„Ø¬Ù†Ø³",
    "submit": "Ù‡ÙŠØ§ Ø¨Ù†Ø§!"
  },
  "newChatModal": {
    "title": "Ø¯Ø±Ø¯Ø´Ø© Ø¬Ø¯ÙŠØ¯Ø©",
    "searchInput": "Ø§Ø¨Ø­Ø« Ø¹Ù† Ø§Ù„Ø§Ø³Ù… Ø£Ùˆ Ø§Ù„Ø±Ù‚Ù…",
    "newGroupOption": "Ù…Ø¬Ù…ÙˆØ¹Ø© Ø¬Ø¯ÙŠØ¯Ø©"
  },
  "contactInfoScreen": {
    "rowHeader": {
      "audio": "Ø§Ù„ØµÙˆØª",
      "video": "Ø§Ù„ÙÙŠØ¯ÙŠÙˆ",
      "search": "Ø§Ù„Ø¨Ø­Ø«"
    },
    "welcomeHeader": {
      "title": "Ù…Ø±Ø­Ø¨Ù‹Ø§ Ø¨Ùƒ ÙÙŠ Ø±Ø§Ù…Ø³ÙŠØ³",
      "date": "18 Ù†ÙˆÙÙ…Ø¨Ø± 2019"
    },
    "mediaHeader": {
      "mediaLinks": "Ø§Ù„ÙˆØ³Ø§Ø¦Ø·ØŒ Ø§Ù„Ø±ÙˆØ§Ø¨Ø· ÙˆØ§Ù„Ù…Ø³ØªÙ†Ø¯Ø§Øª",
      "starredMessages": "Ø§Ù„Ø±Ø³Ø§Ø¦Ù„ Ø§Ù„Ù…Ù…ÙŠØ²Ø©",
      "mediaVisibility": "Ø±Ø¤ÙŠØ© Ø§Ù„ÙˆØ³Ø§Ø¦Ø·"
    },
    "chatSettings": {
      "notifications": "Ø§Ù„Ø¥Ø´Ø¹Ø§Ø±Ø§Øª",
      "wallpaper": "Ø§Ù„Ø®Ù„ÙÙŠØ©",
      "savePhotos": "Ø­ÙØ¸ Ø¥Ù„Ù‰ Ø§Ù„ØµÙˆØ±"
    },
    "chatSecurity": {
      "disappearMessages": "Ø§Ù„Ø±Ø³Ø§Ø¦Ù„ Ø§Ù„Ù…Ø®ØªÙÙŠØ©",
      "lockChat": "Ù‚ÙÙ„ Ø§Ù„Ù…Ø­Ø§Ø¯Ø«Ø©",
      "lockChatBody": "Ù‚ÙÙ„ ÙˆØ¥Ø®ÙØ§Ø¡ Ù‡Ø°Ù‡ Ø§Ù„Ù…Ø­Ø§Ø¯Ø«Ø© Ø¹Ù„Ù‰ Ù‡Ø°Ø§ Ø§Ù„Ø¬Ù‡Ø§Ø²",
      "encryption": "Ø§Ù„ØªØ´ÙÙŠØ±",
      "encryptionBody": "Ø§Ù„Ø±Ø³Ø§Ø¦Ù„ ÙˆØ§Ù„Ù…ÙƒØ§Ù„Ù…Ø§Øª Ù…Ø´ÙØ±Ø© Ù…Ù† Ø§Ù„Ø·Ø±Ù Ø¥Ù„Ù‰ Ø§Ù„Ø·Ø±Ù. Ø§Ø¶ØºØ· Ù„Ù„ØªØ­Ù‚Ù‚"
    },
    "contactDetails": {
      "title": "ØªÙØ§ØµÙŠÙ„ Ø§Ù„Ø§ØªØµØ§Ù„"
    },
    "createGroupWith": {
      "commonGroup": "Ù„Ø§ ØªÙˆØ¬Ø¯ Ù…Ø¬Ù…ÙˆØ¹Ø§Øª Ù…Ø´ØªØ±ÙƒØ©",
      "createGroupWith": "Ø¥Ù†Ø´Ø§Ø¡ Ù…Ø¬Ù…ÙˆØ¹Ø© Ù…Ø¹"
    },
    "shareContactAndFav": {
      "shareContact": "Ù…Ø´Ø§Ø±ÙƒØ© Ø¬Ù‡Ø© Ø§Ù„Ø§ØªØµØ§Ù„",
      "addFav": "Ø¥Ø¶Ø§ÙØ© Ø¥Ù„Ù‰ Ø§Ù„Ù…ÙØ¶Ù„Ø©",
      "exportChat": "ØªØµØ¯ÙŠØ± Ø§Ù„Ù…Ø­Ø§Ø¯Ø«Ø©",
      "clearChat": "Ù…Ø³Ø­ Ø§Ù„Ù…Ø­Ø§Ø¯Ø«Ø©"
    },
    "blockReportContainer": {
      "block": "Ø­Ø¸Ø±",
      "report": "Ø§Ù„Ø¥Ø¨Ù„Ø§Øº"
    }
  },
  "groupInfoScreen": {
    "rowHeader": {
      "audio": "ØµÙˆØª",
      "video": "ÙÙŠØ¯ÙŠÙˆ",
      "add": "Ø¥Ø¶Ø§ÙØ©",
      "search": "Ø¨Ø­Ø«"
    },
    "welcomeHeader": {
      "groupDescription": "Ø£Ø¶Ù ÙˆØµÙ Ø§Ù„Ù…Ø¬Ù…ÙˆØ¹Ø©",
      "title": "ØªÙ… Ø§Ù„Ø¥Ù†Ø´Ø§Ø¡ Ø¨ÙˆØ§Ø³Ø·Ø© ÙƒØ§ØªØ§Ù„ÙŠÙ† Ø¨Ø±Ø§ÙŠØ³ÙƒÙˆ",
      "date": "21/10/2024"
    },
    "mediaHeader": {
      "mediaLinks": "Ø§Ù„ÙˆØ³Ø§Ø¦Ø·ØŒ Ø§Ù„Ø±ÙˆØ§Ø¨Ø· ÙˆØ§Ù„Ù…Ø³ØªÙ†Ø¯Ø§Øª",
      "starredMessages": "Ø§Ù„Ø±Ø³Ø§Ø¦Ù„ Ø§Ù„Ù…Ù…ÙŠØ²Ø© Ø¨Ù†Ø¬Ù…Ø©",
      "mediaVisibility": "Ø¸Ù‡ÙˆØ± Ø§Ù„ÙˆØ³Ø§Ø¦Ø·"
    },
    "chatSettings": {
      "notifications": "Ø§Ù„Ø¥Ø´Ø¹Ø§Ø±Ø§Øª",
      "wallpaper": "Ø§Ù„Ø®Ù„ÙÙŠØ©",
      "savePhotos": "Ø­ÙØ¸ Ø¥Ù„Ù‰ Ø§Ù„ØµÙˆØ±"
    },
    "membersCount": "Ø¹Ø¶Ùˆ",
    "memberGroupTitle": "Ø§Ù„Ù…Ø¬Ù…ÙˆØ¹Ø©",
    "chatSecurity": {
      "disappearMessages": "Ø§Ù„Ø±Ø³Ø§Ø¦Ù„ Ø§Ù„Ù…Ø®ØªÙÙŠØ©",
      "lockChat": "Ù‚ÙÙ„ Ø§Ù„Ù…Ø­Ø§Ø¯Ø«Ø©",
      "lockChatBody": "Ù‚ÙÙ„ ÙˆØ¥Ø®ÙØ§Ø¡ Ù‡Ø°Ù‡ Ø§Ù„Ù…Ø­Ø§Ø¯Ø«Ø© Ø¹Ù„Ù‰ Ù‡Ø°Ø§ Ø§Ù„Ø¬Ù‡Ø§Ø²",
      "encryption": "Ø§Ù„ØªØ´ÙÙŠØ±",
      "encryptionBody": "Ø§Ù„Ø±Ø³Ø§Ø¦Ù„ ÙˆØ§Ù„Ù…ÙƒØ§Ù„Ù…Ø§Øª Ù…Ø´ÙØ±Ø© Ù…Ù† Ø·Ø±Ù Ø¥Ù„Ù‰ Ø·Ø±Ù. Ø§Ø¶ØºØ· Ù„Ù„ØªØ­Ù‚Ù‚"
    },
    "contactDetails": {
      "title": "ØªÙØ§ØµÙŠÙ„ Ø§Ù„Ø§ØªØµØ§Ù„"
    },
    "createGroupWith": {
      "commonGroup": "Ù„Ø§ ØªÙˆØ¬Ø¯ Ù…Ø¬Ù…ÙˆØ¹Ø§Øª Ù…Ø´ØªØ±ÙƒØ©",
      "createGroupWith": "Ø¥Ù†Ø´Ø§Ø¡ Ù…Ø¬Ù…ÙˆØ¹Ø© Ù…Ø¹"
    },
    "shareContactAndFav": {
      "shareContact": "Ù…Ø´Ø§Ø±ÙƒØ© Ø¬Ù‡Ø© Ø§Ù„Ø§ØªØµØ§Ù„",
      "addFav": "Ø¥Ø¶Ø§ÙØ© Ø¥Ù„Ù‰ Ø§Ù„Ù…ÙØ¶Ù„Ø©",
      "exportChat": "ØªØµØ¯ÙŠØ± Ø§Ù„Ù…Ø­Ø§Ø¯Ø«Ø©",
      "clearChat": "Ù…Ø³Ø­ Ø§Ù„Ù…Ø­Ø§Ø¯Ø«Ø©"
    },
    "blockReportContainer": {
      "block": "Ø­Ø¸Ø±",
      "report": "Ø¥Ø¨Ù„Ø§Øº"
    }
  },
  "firstModal": {
    "title": "Ø§Ù„Ù…Ø­Ø§Ø¯Ø«Ø§Øª",
    "placeHolder": "Ø§Ø¨Ø­Ø« Ø¹Ù† Ø§Ø³Ù… Ø£Ùˆ Ø±Ù‚Ù…",
    "newGroup": "Ù…Ø¬Ù…ÙˆØ¹Ø© Ø¬Ø¯ÙŠØ¯Ø©"
  },
  "secondModal": {
    "title": "Ø¥Ø¶Ø§ÙØ© Ø£Ø¹Ø¶Ø§Ø¡",
    "cancel": "Ø¥Ù„ØºØ§Ø¡",
    "Next": "Ø§Ù„ØªØ§Ù„ÙŠ",
    "searchPlaceHolder": "Ø§Ø¨Ø­Ø« Ø¹Ù† Ø§Ø³Ù… Ø£Ùˆ Ø±Ù‚Ù…"
  },
  "thirdModal": {
    "title": "Ù…Ø¬Ù…ÙˆØ¹Ø© Ø¬Ø¯ÙŠØ¯Ø©",
    "back": "Ø±Ø¬ÙˆØ¹",
    "create": "Ø¥Ù†Ø´Ø§Ø¡",
    "groupName": "Ø§Ø³Ù… Ø§Ù„Ù…Ø¬Ù…ÙˆØ¹Ø© (Ø§Ø®ØªÙŠØ§Ø±ÙŠ)",
    "disappearingMessages": "Ø§Ù„Ø±Ø³Ø§Ø¦Ù„ Ø§Ù„Ù…Ø®ØªÙÙŠØ©",
    "groupPermissions": "ØµÙ„Ø§Ø­ÙŠØ§Øª Ø§Ù„Ù…Ø¬Ù…ÙˆØ¹Ø©"
  },
  "countries": {
    "list": [
      {
        "name": "Ø§Ù„Ø¬Ø²Ø§Ø¦Ø±",
        "flag": "ğŸ‡©ğŸ‡¿",
        "code": "DZ",
        "dial_code": "+213",
        "needsLeadingZero": true
      },
      {
        "name": "Ø£Ù†ØºÙˆÙ„Ø§",
        "flag": "ğŸ‡¦ğŸ‡´",
        "code": "AO",
        "dial_code": "+244",
        "needsLeadingZero": false
      },
      {
        "name": "Ø§Ù„Ø¨Ø­Ø±ÙŠÙ†",
        "flag": "ğŸ‡§ğŸ‡­",
        "code": "BH",
        "dial_code": "+973",
        "needsLeadingZero": false
      },
      {
        "name": "Ø¨Ù†ÙŠÙ†",
        "flag": "ğŸ‡§ğŸ‡¯",
        "code": "BJ",
        "dial_code": "+229",
        "needsLeadingZero": false
      },
      {
        "name": "Ø¨ÙˆØªØ³ÙˆØ§Ù†Ø§",
        "flag": "ğŸ‡§ğŸ‡¼",
        "code": "BW",
        "dial_code": "+267",
        "needsLeadingZero": false
      },
      {
        "name": "Ø¨ÙˆØ±ÙƒÙŠÙ†Ø§ ÙØ§Ø³Ùˆ",
        "flag": "ğŸ‡§ğŸ‡«",
        "code": "BF",
        "dial_code": "+226",
        "needsLeadingZero": false
      },
      {
        "name": "Ø¨ÙˆØ±ÙˆÙ†Ø¯ÙŠ",
        "flag": "ğŸ‡§ğŸ‡®",
        "code": "BI",
        "dial_code": "+257",
        "needsLeadingZero": false
      },
      {
        "name": "Ø§Ù„ÙƒØ§Ù…ÙŠØ±ÙˆÙ†",
        "flag": "ğŸ‡¨ğŸ‡²",
        "code": "CM",
        "dial_code": "+237",
        "needsLeadingZero": false
      },
      {
        "name": "Ø§Ù„Ø±Ø£Ø³ Ø§Ù„Ø£Ø®Ø¶Ø±",
        "flag": "ğŸ‡¨ğŸ‡»",
        "code": "CV",
        "dial_code": "+238",
        "needsLeadingZero": false
      },
      {
        "name": "Ø¬Ù…Ù‡ÙˆØ±ÙŠØ© Ø¥ÙØ±ÙŠÙ‚ÙŠØ§ Ø§Ù„ÙˆØ³Ø·Ù‰",
        "flag": "ğŸ‡¨ğŸ‡«",
        "code": "CF",
        "dial_code": "+236",
        "needsLeadingZero": false
      },
      {
        "name": "ØªØ´Ø§Ø¯",
        "flag": "ğŸ‡¹ğŸ‡©",
        "code": "TD",
        "dial_code": "+235",
        "needsLeadingZero": false
      },
      {
        "name": "Ø¬Ø²Ø± Ø§Ù„Ù‚Ù…Ø±",
        "flag": "ğŸ‡°ğŸ‡²",
        "code": "KM",
        "dial_code": "+269",
        "needsLeadingZero": false
      },
      {
        "name": "Ø§Ù„ÙƒÙˆÙ†ØºÙˆ",
        "flag": "ğŸ‡¨ğŸ‡¬",
        "code": "CG",
        "dial_code": "+242",
        "needsLeadingZero": true
      },
      {
        "name": "Ø§Ù„ÙƒÙˆÙ†ØºÙˆØŒ Ø¬Ù…Ù‡ÙˆØ±ÙŠØ© Ø§Ù„ÙƒÙˆÙ†ØºÙˆ Ø§Ù„Ø¯ÙŠÙ…Ù‚Ø±Ø§Ø·ÙŠØ©",
        "flag": "ğŸ‡¨ğŸ‡©",
        "code": "CD",
        "dial_code": "+243",
        "needsLeadingZero": true
      },
      {
        "name": "Ù‚Ø¨Ø±Øµ",
        "flag": "ğŸ‡¨ğŸ‡¾",
        "code": "CY",
        "dial_code": "+357",
        "needsLeadingZero": false
      },
      {
        "name": "ÙƒÙˆØª Ø¯ÙŠÙÙˆØ§Ø±",
        "flag": "ğŸ‡¨ğŸ‡®",
        "code": "CI",
        "dial_code": "+225",
        "needsLeadingZero": true
      },
      {
        "name": "Ø¬ÙŠØ¨ÙˆØªÙŠ",
        "flag": "ğŸ‡©ğŸ‡¯",
        "code": "DJ",
        "dial_code": "+253",
        "needsLeadingZero": false
      },
      {
        "name": "Ù…ØµØ±",
        "flag": "ğŸ‡ªğŸ‡¬",
        "code": "EG",
        "dial_code": "+20",
        "needsLeadingZero": true
      },
      {
        "name": "ØºÙŠÙ†ÙŠØ§ Ø§Ù„Ø§Ø³ØªÙˆØ§Ø¦ÙŠØ©",
        "flag": "ğŸ‡¬ğŸ‡¶",
        "code": "GQ",
        "dial_code": "+240",
        "needsLeadingZero": false
      },
      {
        "name": "Ø¥Ø±ÙŠØªØ±ÙŠØ§",
        "flag": "ğŸ‡ªğŸ‡·",
        "code": "ER",
        "dial_code": "+291",
        "needsLeadingZero": false
      },
      {
        "name": "Ø¥Ø«ÙŠÙˆØ¨ÙŠØ§",
        "flag": "ğŸ‡ªğŸ‡¹",
        "code": "ET",
        "dial_code": "+251",
        "needsLeadingZero": true
      },
      {
        "name": "ØºØ§Ø¨ÙˆÙ†",
        "flag": "ğŸ‡¬ğŸ‡¦",
        "code": "GA",
        "dial_code": "+241",
        "needsLeadingZero": true
      },
      {
        "name": "ØºØ§Ù…Ø¨ÙŠØ§",
        "flag": "ğŸ‡¬ğŸ‡²",
        "code": "GM",
        "dial_code": "+220",
        "needsLeadingZero": false
      },
      {
        "name": "ØºØ§Ù†Ø§",
        "flag": "ğŸ‡¬ğŸ‡­",
        "code": "GH",
        "dial_code": "+233",
        "needsLeadingZero": true
      },
      {
        "name": "ØºÙŠÙ†ÙŠØ§",
        "flag": "ğŸ‡¬ğŸ‡³",
        "code": "GN",
        "dial_code": "+224",
        "needsLeadingZero": false
      },
      {
        "name": "ØºÙŠÙ†ÙŠØ§ Ø¨ÙŠØ³Ø§Ùˆ",
        "flag": "ğŸ‡¬ğŸ‡¼",
        "code": "GW",
        "dial_code": "+245",
        "needsLeadingZero": false
      },
      {
        "name": "Ø¥ÙŠØ±Ø§Ù†",
        "flag": "ğŸ‡®ğŸ‡·",
        "code": "IR",
        "dial_code": "+98",
        "needsLeadingZero": true
      },
      {
        "name": "Ø§Ù„Ø¹Ø±Ø§Ù‚",
        "flag": "ğŸ‡®ğŸ‡¶",
        "code": "IQ",
        "dial_code": "+964",
        "needsLeadingZero": true
      },
      {
        "name": "Ø¥Ø³Ø±Ø§Ø¦ÙŠÙ„",
        "flag": "ğŸ‡®ğŸ‡±",
        "code": "IL",
        "dial_code": "+972",
        "needsLeadingZero": true
      },
      {
        "name": "Ø§Ù„Ø£Ø±Ø¯Ù†",
        "flag": "ğŸ‡¯ğŸ‡´",
        "code": "JO",
        "dial_code": "+962",
        "needsLeadingZero": true
      },
      {
        "name": "ÙƒÙŠÙ†ÙŠØ§",
        "flag": "ğŸ‡°ğŸ‡ª",
        "code": "KE",
        "dial_code": "+254",
        "needsLeadingZero": true
      },
      {
        "name": "Ø§Ù„ÙƒÙˆÙŠØª",
        "flag": "ğŸ‡°ğŸ‡¼",
        "code": "KW",
        "dial_code": "+965",
        "needsLeadingZero": false
      },
      {
        "name": "Ù„Ø¨Ù†Ø§Ù†",
        "flag": "ğŸ‡±ğŸ‡§",
        "code": "LB",
        "dial_code": "+961",
        "needsLeadingZero": true
      },
      {
        "name": "Ù„ÙŠØ³ÙˆØªÙˆ",
        "flag": "ğŸ‡±ğŸ‡¸",
        "code": "LS",
        "dial_code": "+266",
        "needsLeadingZero": false
      },
      {
        "name": "Ù„ÙŠØ¨ÙŠØ±ÙŠØ§",
        "flag": "ğŸ‡±ğŸ‡·",
        "code": "LR",
        "dial_code": "+231",
        "needsLeadingZero": true
      },
      {
        "name": "Ù„ÙŠØ¨ÙŠØ§",
        "flag": "ğŸ‡±ğŸ‡¾",
        "code": "LY",
        "dial_code": "+218",
        "needsLeadingZero": true
      },
      {
        "name": "Ù…Ø¯ØºØ´Ù‚Ø±",
        "flag": "ğŸ‡²ğŸ‡¬",
        "code": "MG",
        "dial_code": "+261",
        "needsLeadingZero": true
      },
      {
        "name": "Ù…Ø§Ù„Ø§ÙˆÙŠ",
        "flag": "ğŸ‡²ğŸ‡¼",
        "code": "MW",
        "dial_code": "+265",
        "needsLeadingZero": true
      },
      {
        "name": "Ù…Ø§Ù„ÙŠ",
        "flag": "ğŸ‡²ğŸ‡±",
        "code": "ML",
        "dial_code": "+223",
        "needsLeadingZero": true
      },
      {
        "name": "Ù…ÙˆØ±ÙŠØªØ§Ù†ÙŠØ§",
        "flag": "ğŸ‡²ğŸ‡·",
        "code": "MR",
        "dial_code": "+222",
        "needsLeadingZero": false
      },
      {
        "name": "Ù…ÙˆØ±ÙŠØ´ÙŠÙˆØ³",
        "flag": "ğŸ‡²ğŸ‡º",
        "code": "MU",
        "dial_code": "+230",
        "needsLeadingZero": false
      },
      {
        "name": "Ø§Ù„Ù…ØºØ±Ø¨",
        "flag": "ğŸ‡²ğŸ‡¦",
        "code": "MA",
        "dial_code": "+212",
        "needsLeadingZero": true
      },
      {
        "name": "Ù…ÙˆØ²Ù…Ø¨ÙŠÙ‚",
        "flag": "ğŸ‡²ğŸ‡¿",
        "code": "MZ",
        "dial_code": "+258",
        "needsLeadingZero": false
      },
      {
        "name": "Ù†Ø§Ù…ÙŠØ¨ÙŠØ§",
        "flag": "ğŸ‡³ğŸ‡¦",
        "code": "NA",
        "dial_code": "+264",
        "needsLeadingZero": false
      },
      {
        "name": "Ù†ÙŠØ¬ÙŠØ±ÙŠØ§",
        "flag": "ğŸ‡³ğŸ‡¬",
        "code": "NG",
        "dial_code": "+234",
        "needsLeadingZero": true
      },
      {
        "name": "Ø±ÙˆØ§Ù†Ø¯Ø§",
        "flag": "ğŸ‡·ğŸ‡¼",
        "code": "RW",
        "dial_code": "+250",
        "needsLeadingZero": true
      },
      {
        "name": "Ø§Ù„Ø³Ø¹ÙˆØ¯ÙŠØ©",
        "flag": "ğŸ‡¸ğŸ‡¦",
        "code": "SA",
        "dial_code": "+966",
        "needsLeadingZero": true
      },
      {
        "name": "Ø³ÙŠØ´Ù„",
        "flag": "ğŸ‡¸ğŸ‡¨",
        "code": "SC",
        "dial_code": "+248",
        "needsLeadingZero": false
      },
      {
        "name": "Ø³ÙŠØ±Ø§Ù„ÙŠÙˆÙ†",
        "flag": "ğŸ‡¸ğŸ‡±",
        "code": "SL",
        "dial_code": "+232",
        "needsLeadingZero": false
      },
      {
        "name": "Ø§Ù„ØµÙˆÙ…Ø§Ù„",
        "flag": "ğŸ‡¸ğŸ‡´",
        "code": "SO",
        "dial_code": "+252",
        "needsLeadingZero": false
      },
      {
        "name": "Ø¬Ù†ÙˆØ¨ Ø¥ÙØ±ÙŠÙ‚ÙŠØ§",
        "flag": "ğŸ‡¿ğŸ‡¦",
        "code": "ZA",
        "dial_code": "+27",
        "needsLeadingZero": true
      },
      {
        "name": "Ø¬Ù†ÙˆØ¨ Ø§Ù„Ø³ÙˆØ¯Ø§Ù†",
        "flag": "ğŸ‡¸ğŸ‡¸",
        "code": "SS",
        "dial_code": "+211",
        "needsLeadingZero": false
      },
      {
        "name": "Ø§Ù„Ø³ÙˆØ¯Ø§Ù†",
        "flag": "ğŸ‡¸ğŸ‡©",
        "code": "SD",
        "dial_code": "+249",
        "needsLeadingZero": false
      },
      {
        "name": "Ø³ÙˆØ§Ø²ÙŠÙ„Ø§Ù†Ø¯",
        "flag": "ğŸ‡¸ğŸ‡¿",
        "code": "SZ",
        "dial_code": "+268",
        "needsLeadingZero": false
      },
      {
        "name": "ØªÙ†Ø²Ø§Ù†ÙŠØ§",
        "flag": "ğŸ‡¹ğŸ‡¿",
        "code": "TZ",
        "dial_code": "+255",
        "needsLeadingZero": true
      },
      {
        "name": "ØªÙˆØºÙˆ",
        "flag": "ğŸ‡¹ğŸ‡¬",
        "code": "TG",
        "dial_code": "+228",
        "needsLeadingZero": false
      },
      {
        "name": "ØªÙˆÙ†Ø³",
        "flag": "ğŸ‡¹ğŸ‡³",
        "code": "TN",
        "dial_code": "+216",
        "needsLeadingZero": false
      },
      {
        "name": "Ø£ÙˆØºÙ†Ø¯Ø§",
        "flag": "ğŸ‡ºğŸ‡¬",
        "code": "UG",
        "dial_code": "+256",
        "needsLeadingZero": true
      },
      {
        "name": "Ø²Ø§Ù…Ø¨ÙŠØ§",
        "flag": "ğŸ‡¿ğŸ‡²",
        "code": "ZM",
        "dial_code": "+260",
        "needsLeadingZero": true
      },
      {
        "name": "Ø²ÙŠÙ…Ø¨Ø§Ø¨ÙˆÙŠ",
        "flag": "ğŸ‡¿ğŸ‡¼",
        "code": "ZW",
        "dial_code": "+263",
        "needsLeadingZero": false
      }
    ]
  }
}
