{
  "language": "Langue",
  "home": {
    "title": "Ramses",
    "welcome": "Bienvenue sur Ramses, votre application pour l'Afrique et le Moyen-Orient !",
    "startButton": "Commencer",
    "terms": "J'accepte tous les termes et conditions"
  },
  "startAlert": {
    "title": "Avertissement",
    "alertTermsError": "Veuillez accepter les termes et conditions"
  },
  "verification": {
    "okText": "D'accord",
    "cancelText": "Annuler"
  },
  "register": {
    "title": "NumÃ©ro de tÃ©lÃ©phone",
    "body": "Entrez le code qui vous a Ã©tÃ© envoyÃ© par SMS Ã  ",
    "body2": ", pour terminer le processus ",
    "textInput": "NumÃ©ro de tÃ©lÃ©phone",
    "sendCode": "Envoyer le code"
  },
  "placeholder": {
    "title": "NumÃ©ro de tÃ©lÃ©phone"
  },
  "invalidNumAlert": {
    "title": "Avertissement",
    "body": "Format de numÃ©ro de tÃ©lÃ©phone invalide"
  },
  "alertTermsError": {
    "body": "Veuillez accepter les termes et conditions"
  },
  "alertConfirm": {
    "title": "Confirmation du numÃ©ro de tÃ©lÃ©phone",
    "body": "Nous enverrons un code de vÃ©rification au numÃ©ro suivant:"
  },
  "codeConfirmation": {
    "title": "Entrez votre code",
    "body": "Entrez le code qui vous a Ã©tÃ© envoyÃ© par SMS \n pour complÃ©ter le processus",
    "confirmButton": "Confirmer",
    "reSendCode": "Renvoyer le code",
    "reSendinCode": "Renvoyer dans"
  },
  "success": {
    "body": "Votre compte a Ã©tÃ© vÃ©rifiÃ© avec succÃ¨s !!",
    "confirmButton": "Continuer"
  },
  // "chatList": {
  //   "title": "Discussions"
  // },
  "countries": {
    "list": [
      {
        "name": "AlgÃ©rie",
        "flag": "ðŸ‡©ðŸ‡¿",
        "code": "DZ",
        "dial_code": "+213",
        "needsLeadingZero": true
      },
      {
        "name": "Angola",
        "flag": "ðŸ‡¦ðŸ‡´",
        "code": "AO",
        "dial_code": "+244",
        "needsLeadingZero": false
      },
      {
        "name": "BahreÃ¯n",
        "flag": "ðŸ‡§ðŸ‡­",
        "code": "BH",
        "dial_code": "+973",
        "needsLeadingZero": false
      },
      {
        "name": "BÃ©nin",
        "flag": "ðŸ‡§ðŸ‡¯",
        "code": "BJ",
        "dial_code": "+229",
        "needsLeadingZero": false
      },
      {
        "name": "Botswana",
        "flag": "ðŸ‡§ðŸ‡¼",
        "code": "BW",
        "dial_code": "+267",
        "needsLeadingZero": false
      },
      {
        "name": "Burkina Faso",
        "flag": "ðŸ‡§ðŸ‡«",
        "code": "BF",
        "dial_code": "+226",
        "needsLeadingZero": false
      },
      {
        "name": "Burundi",
        "flag": "ðŸ‡§ðŸ‡®",
        "code": "BI",
        "dial_code": "+257",
        "needsLeadingZero": false
      },
      {
        "name": "Cameroun",
        "flag": "ðŸ‡¨ðŸ‡²",
        "code": "CM",
        "dial_code": "+237",
        "needsLeadingZero": false
      },
      {
        "name": "Cap-Vert",
        "flag": "ðŸ‡¨ðŸ‡»",
        "code": "CV",
        "dial_code": "+238",
        "needsLeadingZero": false
      },
      {
        "name": "RÃ©publique Centrafricaine",
        "flag": "ðŸ‡¨ðŸ‡«",
        "code": "CF",
        "dial_code": "+236",
        "needsLeadingZero": false
      },
      {
        "name": "Tchad",
        "flag": "ðŸ‡¹ðŸ‡©",
        "code": "TD",
        "dial_code": "+235",
        "needsLeadingZero": false
      },
      {
        "name": "Comores",
        "flag": "ðŸ‡°ðŸ‡²",
        "code": "KM",
        "dial_code": "+269",
        "needsLeadingZero": false
      },
      {
        "name": "Congo",
        "flag": "ðŸ‡¨ðŸ‡¬",
        "code": "CG",
        "dial_code": "+242",
        "needsLeadingZero": true
      },
      {
        "name": "Congo, RÃ©publique DÃ©mocratique du Congo",
        "flag": "ðŸ‡¨ðŸ‡©",
        "code": "CD",
        "dial_code": "+243",
        "needsLeadingZero": true
      },
      {
        "name": "Chypre",
        "flag": "ðŸ‡¨ðŸ‡¾",
        "code": "CY",
        "dial_code": "+357",
        "needsLeadingZero": false
      },
      {
        "name": "CÃ´te d'Ivoire",
        "flag": "ðŸ‡¨ðŸ‡®",
        "code": "CI",
        "dial_code": "+225",
        "needsLeadingZero": true
      },
      {
        "name": "Djibouti",
        "flag": "ðŸ‡©ðŸ‡¯",
        "code": "DJ",
        "dial_code": "+253",
        "needsLeadingZero": false
      },
      {
        "name": "Ã‰gypte",
        "flag": "ðŸ‡ªðŸ‡¬",
        "code": "EG",
        "dial_code": "+20",
        "needsLeadingZero": true
      },
      {
        "name": "GuinÃ©e Ã‰quatoriale",
        "flag": "ðŸ‡¬ðŸ‡¶",
        "code": "GQ",
        "dial_code": "+240",
        "needsLeadingZero": false
      },
      {
        "name": "Ã‰rythrÃ©e",
        "flag": "ðŸ‡ªðŸ‡·",
        "code": "ER",
        "dial_code": "+291",
        "needsLeadingZero": false
      },
      {
        "name": "Ã‰thiopie",
        "flag": "ðŸ‡ªðŸ‡¹",
        "code": "ET",
        "dial_code": "+251",
        "needsLeadingZero": true
      },
      {
        "name": "Gabon",
        "flag": "ðŸ‡¬ðŸ‡¦",
        "code": "GA",
        "dial_code": "+241",
        "needsLeadingZero": true
      },
      {
        "name": "Gambie",
        "flag": "ðŸ‡¬ðŸ‡²",
        "code": "GM",
        "dial_code": "+220",
        "needsLeadingZero": false
      },
      {
        "name": "Ghana",
        "flag": "ðŸ‡¬ðŸ‡­",
        "code": "GH",
        "dial_code": "+233",
        "needsLeadingZero": true
      },
      {
        "name": "GuinÃ©e",
        "flag": "ðŸ‡¬ðŸ‡³",
        "code": "GN",
        "dial_code": "+224",
        "needsLeadingZero": false
      },
      {
        "name": "GuinÃ©e-Bissau",
        "flag": "ðŸ‡¬ðŸ‡¼",
        "code": "GW",
        "dial_code": "+245",
        "needsLeadingZero": false
      },
      {
        "name": "Iran",
        "flag": "ðŸ‡®ðŸ‡·",
        "code": "IR",
        "dial_code": "+98",
        "needsLeadingZero": true
      },
      {
        "name": "Irak",
        "flag": "ðŸ‡®ðŸ‡¶",
        "code": "IQ",
        "dial_code": "+964",
        "needsLeadingZero": true
      },
      {
        "name": "IsraÃ«l",
        "flag": "ðŸ‡®ðŸ‡±",
        "code": "IL",
        "dial_code": "+972",
        "needsLeadingZero": true
      },
      {
        "name": "Jordanie",
        "flag": "ðŸ‡¯ðŸ‡´",
        "code": "JO",
        "dial_code": "+962",
        "needsLeadingZero": true
      },
      {
        "name": "Kenya",
        "flag": "ðŸ‡°ðŸ‡ª",
        "code": "KE",
        "dial_code": "+254",
        "needsLeadingZero": true
      },
      {
        "name": "Kuwait",
        "flag": "ðŸ‡°ðŸ‡¼",
        "code": "KW",
        "dial_code": "+965",
        "needsLeadingZero": false
      },
      {
        "name": "Liban",
        "flag": "ðŸ‡±ðŸ‡§",
        "code": "LB",
        "dial_code": "+961",
        "needsLeadingZero": true
      },
      {
        "name": "Lesotho",
        "flag": "ðŸ‡±ðŸ‡¸",
        "code": "LS",
        "dial_code": "+266",
        "needsLeadingZero": false
      },
      {
        "name": "Liberia",
        "flag": "ðŸ‡±ðŸ‡·",
        "code": "LR",
        "dial_code": "+231",
        "needsLeadingZero": true
      },
      {
        "name": "Jamahiriya Arabe Libyenne",
        "flag": "ðŸ‡±ðŸ‡¾",
        "code": "LY",
        "dial_code": "+218",
        "needsLeadingZero": true
      },
      {
        "name": "Madagascar",
        "flag": "ðŸ‡²ðŸ‡¬",
        "code": "MG",
        "dial_code": "+261",
        "needsLeadingZero": true
      },
      {
        "name": "Malawi",
        "flag": "ðŸ‡²ðŸ‡¼",
        "code": "MW",
        "dial_code": "+265",
        "needsLeadingZero": true
      },
      {
        "name": "Mali",
        "flag": "ðŸ‡²ðŸ‡±",
        "code": "ML",
        "dial_code": "+223",
        "needsLeadingZero": true
      },
      {
        "name": "Mauritanie",
        "flag": "ðŸ‡²ðŸ‡·",
        "code": "MR",
        "dial_code": "+222",
        "needsLeadingZero": false
      },
      {
        "name": "ÃŽle Maurice",
        "flag": "ðŸ‡²ðŸ‡º",
        "code": "MU",
        "dial_code": "+230",
        "needsLeadingZero": false
      },
      {
        "name": "Maroc",
        "flag": "ðŸ‡²ðŸ‡¦",
        "code": "MA",
        "dial_code": "+212",
        "needsLeadingZero": true
      },
      {
        "name": "Mozambique",
        "flag": "ðŸ‡²ðŸ‡¿",
        "code": "MZ",
        "dial_code": "+258",
        "needsLeadingZero": false
      },
      {
        "name": "Namibie",
        "flag": "ðŸ‡³ðŸ‡¦",
        "code": "NA",
        "dial_code": "+264",
        "needsLeadingZero": false
      },
      {
        "name": "Niger",
        "flag": "ðŸ‡³ðŸ‡ª",
        "code": "NE",
        "dial_code": "+227",
        "needsLeadingZero": true
      },
      {
        "name": "Nigeria",
        "flag": "ðŸ‡³ðŸ‡¬",
        "code": "NG",
        "dial_code": "+234",
        "needsLeadingZero": true
      },
      {
        "name": "Oman",
        "flag": "ðŸ‡´ðŸ‡²",
        "code": "OM",
        "dial_code": "+968",
        "needsLeadingZero": false
      },
      {
        "name": "Rwanda",
        "flag": "ðŸ‡·ðŸ‡¼",
        "code": "RW",
        "dial_code": "+250",
        "needsLeadingZero": true
      },
      {
        "name": "Sao TomÃ©-et-Principe",
        "flag": "ðŸ‡¸ðŸ‡¹",
        "code": "ST",
        "dial_code": "+239",
        "needsLeadingZero": false
      },
      {
        "name": "Arabie Saoudite",
        "flag": "ðŸ‡¸ðŸ‡¦",
        "code": "SA",
        "dial_code": "+966",
        "needsLeadingZero": false
      },
      {
        "name": "SÃ©nÃ©gal",
        "flag": "ðŸ‡¸ðŸ‡³",
        "code": "SN",
        "dial_code": "+221",
        "needsLeadingZero": true
      },
      {
        "name": "Sierra Leone",
        "flag": "ðŸ‡¸ðŸ‡±",
        "code": "SL",
        "dial_code": "+232",
        "needsLeadingZero": false
      },
      {
        "name": "Somalie",
        "flag": "ðŸ‡¸ðŸ‡´",
        "code": "SO",
        "dial_code": "+252",
        "needsLeadingZero": false
      },
      {
        "name": "Soudan",
        "flag": "ðŸ‡¸ðŸ‡©",
        "code": "SD",
        "dial_code": "+249",
        "needsLeadingZero": true
      },
      {
        "name": "Soudan du Sud",
        "flag": "ðŸ‡¸ðŸ‡¸",
        "code": "SS",
        "dial_code": "+211",
        "needsLeadingZero": true
      },
      {
        "name": "Tanzanie",
        "flag": "ðŸ‡¹ðŸ‡¿",
        "code": "TZ",
        "dial_code": "+255",
        "needsLeadingZero": true
      },
      {
        "name": "Togo",
        "flag": "ðŸ‡¹ðŸ‡¬",
        "code": "TG",
        "dial_code": "+228",
        "needsLeadingZero": false
      },
      {
        "name": "Tunisie",
        "flag": "ðŸ‡¹ðŸ‡³",
        "code": "TN",
        "dial_code": "+216",
        "needsLeadingZero": true
      },
      {
        "name": "Uganda",
        "flag": "ðŸ‡ºðŸ‡¬",
        "code": "UG",
        "dial_code": "+256",
        "needsLeadingZero": true
      },
      {
        "name": "YÃ©men",
        "flag": "ðŸ‡¾ðŸ‡ª",
        "code": "YE",
        "dial_code": "+967",
        "needsLeadingZero": true
      },
      {
        "name": "Zambie",
        "flag": "ðŸ‡¿ðŸ‡²",
        "code": "ZM",
        "dial_code": "+260",
        "needsLeadingZero": true
      },
      {
        "name": "Zimbabwe",
        "flag": "ðŸ‡¿ðŸ‡¦",
        "code": "ZW",
        "dial_code": "+263",
        "needsLeadingZero": true
      }
    ]
  }
}
