{
  "language": "á‰‹áŠ•á‰‹",
  "home": {
    "title": "áˆ«áˆáˆ´áˆµ",
    "welcome": "áˆ«áˆáˆ´áˆµ á‹ˆá‹° áŠ ááˆªáŠ« áŠ¥áŠ“ áˆ˜áŠ«áŠ¨áˆˆáŠ› áˆáˆµáˆ áŠ¥áŠ•áŠ³áŠ• á‹ˆá‹° á‰°áˆ˜áˆˆáˆµáŠ¨!",
    "startButton": "áˆ˜áŒ€áˆ˜áˆ­",
    "terms": "áŠ¨á‰°áˆˆá‹«á‹© áˆ˜áˆ áˆ¨á‰¶á‰½ áŒ‹áˆ­ áŠ¥á‰…á áŠáŠ"
  },
  "register": {
    "title": "á‹¨áˆµáˆáŠ­ á‰áŒ¥áˆ­",
    "body": "áŠ¥á‰£áŠ®á‰µáŠ• á‹ˆá‹° á‰€áŒ£á‹­ á‹­áˆ‚á‹± \n á‹¨áˆµáˆáŠ­ á‰áŒ¥áˆ­á‹áŠ• áŠ áˆµá‰€áˆáŒ¡",
    "textInput": "á‹¨áˆµáˆáŠ­ á‰áŒ¥áˆ­",
    "sendCode": "áŠ®á‹µ áŠ¥áŠ•á‹°áˆ‹áŠ­"
  },
  "placeholder": {
    "title": "á‹¨áˆµáˆáŠ­ á‰áŒ¥áˆ­"
  },
  "invalidNumAlert": {
    "body": "á‹¨áˆµáˆáŠ­ á‰áŒ¥áˆ­ ááˆ­áˆ›á‰µ á‹­á‹ˆáˆµá‹³áˆ"
  },
  "alertTermsError": {
    "body": "áŠ¥á‰£áŠ®á‰µáŠ• á‹¨áŠ á‰…áŒ£áŒ«á‹á‰½áŠ•áŠ“ áˆ˜áˆ˜áˆªá‹«á‹á‰½áŠ• á‰°á‰€á‰¥áˆ‰"
  },
  "alertConfirm": {
    "title": "á‹¨áˆµáˆáŠ­ á‰áŒ¥áˆ­ áˆ›áˆ¨áŒ‹áŒˆáŒ«",
    "body": "á‰ á‰³á‰½ á‹¨á‰³á‹ˆá‰€ á‰áŒ¥áˆ­ á‹ˆá‹° á‹‹áˆµá‰µ áŠ®á‹µ á‹­áˆáŠ¨á‹‹áˆ:"
  },
  "codeConfirmation": {
    "title": "áŠ®á‹µá‹áŠ• á‹­áŒˆá‰£",
    "body": "á‹ˆá‹° SMS á‹¨á‰°áˆ‹áŠ¨á‹áŠ• áŠ®á‹µ á‹­áŒˆá‰£ \n á‹¨áˆ‚á‹°á‰µáŠ• áŠ¥áŠ•á‹²á‹ˆá‹µá‰… áˆáˆµáˆˆá‹",
    "confirmButton": "áŠ¥áˆ­áŒáŒ áŠ",
    "reSendCode": "áŠ®á‹µ á‹­á‰€áŒ¥áˆ‰",
    "reSendinCode": "á‹ˆá‹°á‹šá‹« á‰€áŒ¥áˆ‰"
  },
  "success": {
    "body": "á‹¨áŠ¥áˆ­áˆµá‹ áŠ áŠ«á‹áŠ•á‰µ á‰ á‰°áˆ³áŠ« áˆáŠ”á‰³ á‰°áˆ˜áˆˆáˆµáˆáŠ!!",
    "confirmButton": "á‹­á‰€áŒ¥áˆ‰"
  },
  "countries": [
    {
      "name": "áŠ áˆ­áŒ„áˆŠá‹«",
      "flag": "ğŸ‡©ğŸ‡¿",
      "code": "DZ",
      "dial_code": "+213",
      "needsLeadingZero": true
    },
    {
      "name": "áŠ áŠ•áŒáˆ‹",
      "flag": "ğŸ‡¦ğŸ‡´",
      "code": "AO",
      "dial_code": "+244",
      "needsLeadingZero": false
    },
    {
      "name": "á‰£áˆ„áˆªáŠ•",
      "flag": "ğŸ‡§ğŸ‡­",
      "code": "BH",
      "dial_code": "+973",
      "needsLeadingZero": false
    },
    {
      "name": "á‰¤áŠ’áŠ•",
      "flag": "ğŸ‡§ğŸ‡¯",
      "code": "BJ",
      "dial_code": "+229",
      "needsLeadingZero": false
    },
    {
      "name": "á‰¦á‰µáˆµá‹‹áŠ“",
      "flag": "ğŸ‡§ğŸ‡¼",
      "code": "BW",
      "dial_code": "+267",
      "needsLeadingZero": false
    },
    {
      "name": "á‰¡áˆ­áŠªáŠ“ á‹áˆ±",
      "flag": "ğŸ‡§ğŸ‡«",
      "code": "BF",
      "dial_code": "+226",
      "needsLeadingZero": false
    },
    {
      "name": "á‰¡áˆ©áŠ•á‹²",
      "flag": "ğŸ‡§ğŸ‡®",
      "code": "BI",
      "dial_code": "+257",
      "needsLeadingZero": false
    },
    {
      "name": "áŠ«áˆ›áˆ®áŠ•",
      "flag": "ğŸ‡¨ğŸ‡²",
      "code": "CM",
      "dial_code": "+237",
      "needsLeadingZero": false
    },
    {
      "name": "áŠ«á‰¥á‹­ á‰¬áˆ­á‹´",
      "flag": "ğŸ‡¨ğŸ‡»",
      "code": "CV",
      "dial_code": "+238",
      "needsLeadingZero": false
    },
    {
      "name": "áˆªáá‰¥áˆŠáŠ­ áŠ¬áŠ•á‰µáˆ«áˆ áŠ ááˆªá‰ƒ",
      "flag": "ğŸ‡¨ğŸ‡«",
      "code": "CF",
      "dial_code": "+236",
      "needsLeadingZero": false
    },
    {
      "name": "á‰»á‹´",
      "flag": "ğŸ‡¹ğŸ‡©",
      "code": "TD",
      "dial_code": "+235",
      "needsLeadingZero": false
    },
    {
      "name": "áŠ®áˆáˆªá‹«",
      "flag": "ğŸ‡°ğŸ‡²",
      "code": "KM",
      "dial_code": "+269",
      "needsLeadingZero": false
    },
    {
      "name": "áŠ®áŠ•áŒ",
      "flag": "ğŸ‡¨ğŸ‡¬",
      "code": "CG",
      "dial_code": "+242",
      "needsLeadingZero": true
    },
    {
      "name": "á‹´áˆáŠ­áˆ«á‰²áŠ­ áŠ®áŠ•áŒ",
      "flag": "ğŸ‡¨ğŸ‡©",
      "code": "CD",
      "dial_code": "+243",
      "needsLeadingZero": true
    },
    {
      "name": "á‰ºá•áˆ­",
      "flag": "ğŸ‡¨ğŸ‡¾",
      "code": "CY",
      "dial_code": "+357",
      "needsLeadingZero": false
    },
    {
      "name": "áŠ®áˆµá‰³ á‹¶ áˆ›áˆ­áŠáŠ•",
      "flag": "ğŸ‡¨ğŸ‡®",
      "code": "CI",
      "dial_code": "+225",
      "needsLeadingZero": true
    },
    {
      "name": "áŒ…á‰¡á‰²",
      "flag": "ğŸ‡©ğŸ‡¯",
      "code": "DJ",
      "dial_code": "+253",
      "needsLeadingZero": false
    },
    {
      "name": "áŒá‰¥áŒ½",
      "flag": "ğŸ‡ªğŸ‡¬",
      "code": "EG",
      "dial_code": "+20",
      "needsLeadingZero": true
    },
    {
      "name": "áŠªáŠ•á‹« áŠ¢á‰µá‹®áŒµá‹«",
      "flag": "ğŸ‡¬ğŸ‡¶",
      "code": "GQ",
      "dial_code": "+240",
      "needsLeadingZero": false
    },
    {
      "name": "áŠ¤áˆªá‰µáˆ«",
      "flag": "ğŸ‡ªğŸ‡·",
      "code": "ER",
      "dial_code": "+291",
      "needsLeadingZero": false
    },
    {
      "name": "áŠ¢á‰µá‹®áŒµá‹«",
      "flag": "ğŸ‡ªğŸ‡¹",
      "code": "ET",
      "dial_code": "+251",
      "needsLeadingZero": true
    },
    {
      "name": "áŒ‹á‰¦áŠ•",
      "flag": "ğŸ‡¬ğŸ‡¦",
      "code": "GA",
      "dial_code": "+241",
      "needsLeadingZero": true
    },
    {
      "name": "áŒˆáˆá‰¥á‹«",
      "flag": "ğŸ‡¬ğŸ‡²",
      "code": "GM",
      "dial_code": "+220",
      "needsLeadingZero": false
    },
    {
      "name": "áŒ‹áŠ“",
      "flag": "ğŸ‡¬ğŸ‡­",
      "code": "GH",
      "dial_code": "+233",
      "needsLeadingZero": true
    },
    {
      "name": "áŒ‰áŠ•á‹­",
      "flag": "ğŸ‡¬ğŸ‡³",
      "code": "GN",
      "dial_code": "+224",
      "needsLeadingZero": false
    },
    {
      "name": "áŒ‰áŠ•á‹­ á‰¢áˆ³á‹",
      "flag": "ğŸ‡¬ğŸ‡¼",
      "code": "GW",
      "dial_code": "+245",
      "needsLeadingZero": false
    },
    {
      "name": "áŠ¢áˆ«áŠ•",
      "flag": "ğŸ‡®ğŸ‡·",
      "code": "IR",
      "dial_code": "+98",
      "needsLeadingZero": true
    },
    {
      "name": "áŠ¢áˆ«á‰…",
      "flag": "ğŸ‡®ğŸ‡¶",
      "code": "IQ",
      "dial_code": "+964",
      "needsLeadingZero": true
    },
    {
      "name": "áŠ¥áˆµáˆ¬áŠ¤áˆ",
      "flag": "ğŸ‡®ğŸ‡±",
      "code": "IL",
      "dial_code": "+972",
      "needsLeadingZero": true
    },
    {
      "name": "áŒ†áˆ­á‹³áŠ•",
      "flag": "ğŸ‡¯ğŸ‡´",
      "code": "JO",
      "dial_code": "+962",
      "needsLeadingZero": true
    },
    {
      "name": "áŠ¬áŠ•á‹«",
      "flag": "ğŸ‡°ğŸ‡ª",
      "code": "KE",
      "dial_code": "+254",
      "needsLeadingZero": true
    },
    {
      "name": "áŠ©á‹Œá‰³",
      "flag": "ğŸ‡°ğŸ‡¼",
      "code": "KW",
      "dial_code": "+965",
      "needsLeadingZero": false
    },
    {
      "name": "áˆŠá‰£áŠ–",
      "flag": "ğŸ‡±ğŸ‡§",
      "code": "LB",
      "dial_code": "+961",
      "needsLeadingZero": true
    },
    {
      "name": "áˆŒáˆ¶á‰¶",
      "flag": "ğŸ‡±ğŸ‡¸",
      "code": "LS",
      "dial_code": "+266",
      "needsLeadingZero": false
    },
    {
      "name": "áˆŠá‰ áˆªá‹«",
      "flag": "ğŸ‡±ğŸ‡·",
      "code": "LR",
      "dial_code": "+231",
      "needsLeadingZero": true
    },
    {
      "name": "áˆŠá‰¢á‹«",
      "flag": "ğŸ‡±ğŸ‡¾",
      "code": "LY",
      "dial_code": "+218",
      "needsLeadingZero": true
    },
    {
      "name": "áˆ›á‹³áŒáˆ«áˆµáŠ«áˆ­",
      "flag": "ğŸ‡²ğŸ‡¬",
      "code": "MG",
      "dial_code": "+261",
      "needsLeadingZero": true
    },
    {
      "name": "áˆ›áˆ‹á‹á‹­",
      "flag": "ğŸ‡²ğŸ‡¼",
      "code": "MW",
      "dial_code": "+265",
      "needsLeadingZero": true
    },
    {
      "name": "áˆ›áˆŠ",
      "flag": "ğŸ‡²ğŸ‡±",
      "code": "ML",
      "dial_code": "+223",
      "needsLeadingZero": false
    },
    {
      "name": "áˆ›áˆªá‰¶áŠ’á‹«",
      "flag": "ğŸ‡²ğŸ‡¹",
      "code": "MR",
      "dial_code": "+222",
      "needsLeadingZero": false
    },
    {
      "name": "áˆ›áˆµá‹‹",
      "flag": "ğŸ‡²ğŸ‡¦",
      "code": "MA",
      "dial_code": "+212",
      "needsLeadingZero": true
    },
    {
      "name": "áˆá‹•áˆ˜áˆ‹áˆ‹á‹­",
      "flag": "ğŸ‡²ğŸ‡¿",
      "code": "MZ",
      "dial_code": "+258",
      "needsLeadingZero": false
    },
    {
      "name": "áŠ áˆ­á‰¦áŠ’á‹«",
      "flag": "ğŸ‡³ğŸ‡±",
      "code": "NL",
      "dial_code": "+31",
      "needsLeadingZero": false
    },
    {
      "name": "áŠ á‹³áˆ",
      "flag": "ğŸ‡³ğŸ‡ª",
      "code": "NE",
      "dial_code": "+227",
      "needsLeadingZero": true
    },
    {
      "name": "áŠ’áŒ„áˆ­",
      "flag": "ğŸ‡³ğŸ‡¬",
      "code": "NG",
      "dial_code": "+234",
      "needsLeadingZero": true
    },
    {
      "name": "áˆ©á‹‹áŠ•á‹³",
      "flag": "ğŸ‡·ğŸ‡¼",
      "code": "RW",
      "dial_code": "+250",
      "needsLeadingZero": true
    },
    {
      "name": "áˆ³á‹á‹² áŠ áˆ«á‰¢á‹«",
      "flag": "ğŸ‡¸ğŸ‡¦",
      "code": "SA",
      "dial_code": "+966",
      "needsLeadingZero": true
    },
    {
      "name": "áˆ´á‰½áˆáˆµ",
      "flag": "ğŸ‡¸ğŸ‡¨",
      "code": "SC",
      "dial_code": "+248",
      "needsLeadingZero": false
    },
    {
      "name": "áˆ´áˆ« áˆŠá‹«áŠ¦",
      "flag": "ğŸ‡¸ğŸ‡±",
      "code": "SL",
      "dial_code": "+232",
      "needsLeadingZero": false
    },
    {
      "name": "áˆ¶áˆ›áˆŠá‹«",
      "flag": "ğŸ‡¸ğŸ‡´",
      "code": "SO",
      "dial_code": "+252",
      "needsLeadingZero": false
    },
    {
      "name": "á‹°á‰¡á‰¥ áŠ ááˆªáŠ«",
      "flag": "ğŸ‡¿ğŸ‡¦",
      "code": "ZA",
      "dial_code": "+27",
      "needsLeadingZero": true
    },
    {
      "name": "á‹°á‰¡á‰¥ áˆ±á‹³áŠ•",
      "flag": "ğŸ‡¸ğŸ‡¸",
      "code": "SS",
      "dial_code": "+211",
      "needsLeadingZero": false
    },
    {
      "name": "áˆ±á‹³áŠ•",
      "flag": "ğŸ‡¸ğŸ‡©",
      "code": "SD",
      "dial_code": "+249",
      "needsLeadingZero": false
    },
    {
      "name": "áˆ±á‹‹á‹šáˆ‹áŠ•á‹µ",
      "flag": "ğŸ‡¸ğŸ‡¿",
      "code": "SZ",
      "dial_code": "+268",
      "needsLeadingZero": false
    },
    {
      "name": "á‰³áŠ•á‹›áŠ’á‹«",
      "flag": "ğŸ‡¹ğŸ‡¿",
      "code": "TZ",
      "dial_code": "+255",
      "needsLeadingZero": true
    },
    {
      "name": "á‰¶áŒ",
      "flag": "ğŸ‡¹ğŸ‡¬",
      "code": "TG",
      "dial_code": "+228",
      "needsLeadingZero": false
    },
    {
      "name": "á‰±áŠ’á‹šá‹«",
      "flag": "ğŸ‡¹ğŸ‡³",
      "code": "TN",
      "dial_code": "+216",
      "needsLeadingZero": false
    },
    {
      "name": "á‹©áŒ‹áŠ•á‹³",
      "flag": "ğŸ‡ºğŸ‡¬",
      "code": "UG",
      "dial_code": "+256",
      "needsLeadingZero": true
    },
    {
      "name": "á‹›áˆá‰¢á‹«",
      "flag": "ğŸ‡¿ğŸ‡²",
      "code": "ZM",
      "dial_code": "+260",
      "needsLeadingZero": true
    },
    {
      "name": "á‹šáˆá‰£á‰¡á‹Œ",
      "flag": "ğŸ‡¿ğŸ‡¼",
      "code": "ZW",
      "dial_code": "+263",
      "needsLeadingZero": false
    }
  ]
}
