{
  "language": "El-Logha",
  "home": {
    "title": "Ramses",
    "welcome": "Ahlan beek fe Rames, el tatbee2 le afriqia wel sharq el awsat!",
    "startButton": "Ebda2",
    "terms": "Mwafe2 3ala kol el shroot wel a7kam"
  },
  "startAlert": {
    "title": "Ta7zeer",
    "alertTermsError": "Lazm twafe2 3ala el shroot wel a7kam"
  },
  "verification": {
    "okText": "OK",
    "cancelText": "Cancel"
  },
  "register": {
    "title": "Nemret el telephone",
    "body": "3shn tkamel, lazm teda5al rakam telephonak",
    "textInput": "Rakam el telephone",
    "sendCode": "Eb3at el code"
  },
  "placeholder": {
    "title": "Rakam el telephone"
  },
  "invalidNumAlert": {
    "title": "Ta7zeer",
    "body": "El rakam el m7toot msh sa7"
  },
  "alertConfirm": {
    "title": "ta2keed rakam el telephone",
    "body": "Hytb3etlk code OTP 3ala el rakam el hoa:"
  },
  "membersAlert": {
    "title": "Ta7zeer !!",
    "body": "Mafeesh ay a3da2 mokhtareen lesa",
    "button": "Mashy"
  },
  "codeConfirmation": {
    "title": "Da5al el code",
    "body": "3shn net2aked mn rakam telephonak, da5al el code el b3tnah 3ala ",
    "confirmButton": "Ta2keed",
    "reSendCode": "Eb3at el code tany",
    "reSendinCode": "Hytb3et el code fe 5elal "
  },
  "success": {
    "body": "Et2abalet el 3amaleya be naga7 !!",
    "confirmButton": "Ta2keed"
  },
  "onBoardProfile": {
    "photo": "Deef Soora",
    "name": "El 2esm",
    "nickname": "El Laqab",
    "gender": "El gens",
    "submit": "Yalla beena!"
  },
  "chatList": {
    "title": "Eldardasha"
  },
  "newChatModal": {
    "title": "Chat gedid",
    "searchInput": "Dawar 3ala el esm aw el raqam",
    "newGroupOption": "Group gedid"
  },
  "contactInfoScreen": {
    "rowHeader": {
      "audio": "elsot",
      "video": "elfideo",
      "search": "elb7s"
    },
    "welcomeHeader": {
      "title": "Ahlan bik fi Ramses",
      "date": "18 November 2019"
    },
    "mediaHeader": {
      "mediaLinks": "elwasayet, elroabet wel mostanadat",
      "starredMessages": "elresayel elmomayza",
      "mediaVisibility": "Zohoor el wasa2t"
    },
    "chatSettings": {
      "notifications": "ele3lanat",
      "wallpaper": "elxalfeya",
      "savePhotos": "7faz fi el sowar"
    },
    "chatSecurity": {
      "disappearMessages": "elresayel elly bt5tify",
      "lockChat": "2fel elchat",
      "lockChatBody": "2fel w 5aby el chat da 3ala el gihaz da",
      "encryption": "eltasfir",
      "encryptionBody": "el resayel metshafra mn el taraf lel taraf. dos lel ta2kid"
    },
    "contactDetails": {
      "title": "tafasyel el ette9al"
    },
    "createGroupWith": {
      "commonGroup": "mafish groopat moshtaraka",
      "createGroupWith": "e3mel group ma3"
    },
    "shareContactAndFav": {
      "shareContact": "sharek 7adet el ette9al",
      "addFav": "2def lel mofadala",
      "exportChat": "sadder el chat",
      "clearChat": "mes7 el chat"
    },
    "blockReportContainer": {
      "block": "7azr",
      "report": "2ablgh"
    }
  },
  "groupInfoScreen": {
    "rowHeader": {
      "audio": "Sot",
      "video": "Video",
      "add": "Ezafa",
      "search": "Bahes"
    },
    "welcomeHeader": {
      "groupDescription": "Deef wasf lel group",
      "title": "Et3mlt bwaset Catalin Braescu",
      "date": "21/10/2024"
    },
    "mediaHeader": {
      "mediaLinks": "Elwasaet, el roabett w el mostanadat",
      "starredMessages": "El resayel el momayaza",
      "mediaVisibility": "Zohoor elwasaet"
    },
    "chatSettings": {
      "notifications": "El e3lanat",
      "wallpaper": "El khaleft",
      "savePhotos": "Ehfaz fel sowar"
    },
    "membersCount": "3odwe",
    "memberGroupTitle": "El Magmo3a",
    "chatSecurity": {
      "disappearMessages": "El resayel elly bt5tfi",
      "lockChat": "Efl el mo7adsa",
      "lockChatBody": "Efel w 5abi el mo7adsa di 3ala el gehaz da",
      "encryption": "El teshfeer",
      "encryptionBody": "El resayel w el mokalemat meshfara mn el tarafen. Dos 3shan tt7a2a2"
    },
    "contactDetails": {
      "title": "Tafaseel el etesal"
    },
    "createGroupWith": {
      "commonGroup": "Mafeesh mgmo3at moshtaraka",
      "createGroupWith": "E3ml group m3"
    },
    "shareContactAndFav": {
      "shareContact": "Sharek gahet el etesal",
      "addFav": "Deef lel mofadala",
      "exportChat": "Sader el mo7adsa",
      "clearChat": "Ms7 el mo7adsa"
    },
    "blockReportContainer": {
      "block": "E7zer",
      "report": "Eblgh"
    }
  },

  "firstModal": {
    "title": "El dardasha",
    "placeHolder": "dawar 3ala esm aw rakam",
    "newGroup": "magmo3a gedida"
  },
  "secondModal": {
    "title": "Zawed a3da2",
    "cancel": "elgha2",
    "Next": "el b3do",
    "searchPlaceHolder": "dawar 3ala esm aw rakam"
  },
  "thirdModal": {
    "title": "magmo3a gedida",
    "back": "rogou3",
    "create": "ensha2",
    "groupName": "esma el magmo3a (ekhtyary)",
    "disappearingMessages": "el rasayel el mokhtafya",
    "groupPermissions": "sala7yat el magmo3a"
  },
  "countries": {
    "list": [
      {
        "name": "Algeria",
        "flag": "ðŸ‡©ðŸ‡¿",
        "code": "DZ",
        "dial_code": "+213",
        "needsLeadingZero": true
      },
      {
        "name": "Angola",
        "flag": "ðŸ‡¦ðŸ‡´",
        "code": "AO",
        "dial_code": "+244",
        "needsLeadingZero": false
      },
      {
        "name": "Bahrain",
        "flag": "ðŸ‡§ðŸ‡­",
        "code": "BH",
        "dial_code": "+973",
        "needsLeadingZero": false
      },
      {
        "name": "Benin",
        "flag": "ðŸ‡§ðŸ‡¯",
        "code": "BJ",
        "dial_code": "+229",
        "needsLeadingZero": false
      },
      {
        "name": "Botswana",
        "flag": "ðŸ‡§ðŸ‡¼",
        "code": "BW",
        "dial_code": "+267",
        "needsLeadingZero": false
      },
      {
        "name": "Burkina Faso",
        "flag": "ðŸ‡§ðŸ‡«",
        "code": "BF",
        "dial_code": "+226",
        "needsLeadingZero": false
      },
      {
        "name": "Burundi",
        "flag": "ðŸ‡§ðŸ‡®",
        "code": "BI",
        "dial_code": "+257",
        "needsLeadingZero": false
      },
      {
        "name": "Cameroon",
        "flag": "ðŸ‡¨ðŸ‡²",
        "code": "CM",
        "dial_code": "+237",
        "needsLeadingZero": false
      },
      {
        "name": "Cape Verde",
        "flag": "ðŸ‡¨ðŸ‡»",
        "code": "CV",
        "dial_code": "+238",
        "needsLeadingZero": false
      },
      {
        "name": "Central African Republic",
        "flag": "ðŸ‡¨ðŸ‡«",
        "code": "CF",
        "dial_code": "+236",
        "needsLeadingZero": false
      },
      {
        "name": "Chad",
        "flag": "ðŸ‡¹ðŸ‡©",
        "code": "TD",
        "dial_code": "+235",
        "needsLeadingZero": false
      },
      {
        "name": "Comoros",
        "flag": "ðŸ‡°ðŸ‡²",
        "code": "KM",
        "dial_code": "+269",
        "needsLeadingZero": false
      },
      {
        "name": "Congo",
        "flag": "ðŸ‡¨ðŸ‡¬",
        "code": "CG",
        "dial_code": "+242",
        "needsLeadingZero": true
      },
      {
        "name": "Congo, The Democratic Republic of the Congo",
        "flag": "ðŸ‡¨ðŸ‡©",
        "code": "CD",
        "dial_code": "+243",
        "needsLeadingZero": true
      },
      {
        "name": "Cyprus",
        "flag": "ðŸ‡¨ðŸ‡¾",
        "code": "CY",
        "dial_code": "+357",
        "needsLeadingZero": false
      },
      {
        "name": "CÃ´te d'Ivoire",
        "flag": "ðŸ‡¨ðŸ‡®",
        "code": "CI",
        "dial_code": "+225",
        "needsLeadingZero": true
      },
      {
        "name": "Djibouti",
        "flag": "ðŸ‡©ðŸ‡¯",
        "code": "DJ",
        "dial_code": "+253",
        "needsLeadingZero": false
      },
      {
        "name": "Egypt",
        "flag": "ðŸ‡ªðŸ‡¬",
        "code": "EG",
        "dial_code": "+20",
        "needsLeadingZero": true
      },
      {
        "name": "Equatorial Guinea",
        "flag": "ðŸ‡¬ðŸ‡¶",
        "code": "GQ",
        "dial_code": "+240",
        "needsLeadingZero": false
      },
      {
        "name": "Eritrea",
        "flag": "ðŸ‡ªðŸ‡·",
        "code": "ER",
        "dial_code": "+291",
        "needsLeadingZero": false
      },
      {
        "name": "Ethiopia",
        "flag": "ðŸ‡ªðŸ‡¹",
        "code": "ET",
        "dial_code": "+251",
        "needsLeadingZero": true
      },
      {
        "name": "Gabon",
        "flag": "ðŸ‡¬ðŸ‡¦",
        "code": "GA",
        "dial_code": "+241",
        "needsLeadingZero": true
      },
      {
        "name": "Gambia",
        "flag": "ðŸ‡¬ðŸ‡²",
        "code": "GM",
        "dial_code": "+220",
        "needsLeadingZero": false
      },
      {
        "name": "Ghana",
        "flag": "ðŸ‡¬ðŸ‡­",
        "code": "GH",
        "dial_code": "+233",
        "needsLeadingZero": true
      },
      {
        "name": "Guinea",
        "flag": "ðŸ‡¬ðŸ‡³",
        "code": "GN",
        "dial_code": "+224",
        "needsLeadingZero": false
      },
      {
        "name": "Guinea-Bissau",
        "flag": "ðŸ‡¬ðŸ‡¼",
        "code": "GW",
        "dial_code": "+245",
        "needsLeadingZero": false
      },
      {
        "name": "Iran",
        "flag": "ðŸ‡®ðŸ‡·",
        "code": "IR",
        "dial_code": "+98",
        "needsLeadingZero": true
      },
      {
        "name": "Iraq",
        "flag": "ðŸ‡®ðŸ‡¶",
        "code": "IQ",
        "dial_code": "+964",
        "needsLeadingZero": true
      },
      {
        "name": "Israel",
        "flag": "ðŸ‡®ðŸ‡±",
        "code": "IL",
        "dial_code": "+972",
        "needsLeadingZero": true
      },
      {
        "name": "Jordan",
        "flag": "ðŸ‡¯ðŸ‡´",
        "code": "JO",
        "dial_code": "+962",
        "needsLeadingZero": true
      },
      {
        "name": "Kenya",
        "flag": "ðŸ‡°ðŸ‡ª",
        "code": "KE",
        "dial_code": "+254",
        "needsLeadingZero": true
      },
      {
        "name": "Kuwait",
        "flag": "ðŸ‡°ðŸ‡¼",
        "code": "KW",
        "dial_code": "+965",
        "needsLeadingZero": false
      },
      {
        "name": "Lebanon",
        "flag": "ðŸ‡±ðŸ‡§",
        "code": "LB",
        "dial_code": "+961",
        "needsLeadingZero": true
      },
      {
        "name": "Lesotho",
        "flag": "ðŸ‡±ðŸ‡¸",
        "code": "LS",
        "dial_code": "+266",
        "needsLeadingZero": false
      },
      {
        "name": "Liberia",
        "flag": "ðŸ‡±ðŸ‡·",
        "code": "LR",
        "dial_code": "+231",
        "needsLeadingZero": true
      },
      {
        "name": "Libyan Arab Jamahiriya",
        "flag": "ðŸ‡±ðŸ‡¾",
        "code": "LY",
        "dial_code": "+218",
        "needsLeadingZero": true
      },
      {
        "name": "Madagascar",
        "flag": "ðŸ‡²ðŸ‡¬",
        "code": "MG",
        "dial_code": "+261",
        "needsLeadingZero": true
      },
      {
        "name": "Malawi",
        "flag": "ðŸ‡²ðŸ‡¼",
        "code": "MW",
        "dial_code": "+265",
        "needsLeadingZero": true
      },
      {
        "name": "Mali",
        "flag": "ðŸ‡²ðŸ‡±",
        "code": "ML",
        "dial_code": "+223",
        "needsLeadingZero": true
      },
      {
        "name": "Mauritania",
        "flag": "ðŸ‡²ðŸ‡·",
        "code": "MR",
        "dial_code": "+222",
        "needsLeadingZero": false
      },
      {
        "name": "Mauritius",
        "flag": "ðŸ‡²ðŸ‡º",
        "code": "MU",
        "dial_code": "+230",
        "needsLeadingZero": false
      },
      {
        "name": "Morocco",
        "flag": "ðŸ‡²ðŸ‡¦",
        "code": "MA",
        "dial_code": "+212",
        "needsLeadingZero": true
      },
      {
        "name": "Mozambique",
        "flag": "ðŸ‡²ðŸ‡¿",
        "code": "MZ",
        "dial_code": "+258",
        "needsLeadingZero": false
      },
      {
        "name": "Namibia",
        "flag": "ðŸ‡³ðŸ‡¦",
        "code": "NA",
        "dial_code": "+264",
        "needsLeadingZero": true
      },
      {
        "name": "Niger",
        "flag": "ðŸ‡³ðŸ‡ª",
        "code": "NE",
        "dial_code": "+227",
        "needsLeadingZero": true
      },
      {
        "name": "Nigeria",
        "flag": "ðŸ‡³ðŸ‡¬",
        "code": "NG",
        "dial_code": "+234",
        "needsLeadingZero": true
      },
      {
        "name": "Oman",
        "flag": "ðŸ‡´ðŸ‡²",
        "code": "OM",
        "dial_code": "+968",
        "needsLeadingZero": false
      },
      {
        "name": "Palestinian Territory, Occupied",
        "flag": "ðŸ‡µðŸ‡¸",
        "code": "PS",
        "dial_code": "+970",
        "needsLeadingZero": true
      },
      {
        "name": "Qatar",
        "flag": "ðŸ‡¶ðŸ‡¦",
        "code": "QA",
        "dial_code": "+974",
        "needsLeadingZero": true
      },
      {
        "name": "RÃ©union",
        "flag": "ðŸ‡·ðŸ‡ª",
        "code": "RE",
        "dial_code": "+262",
        "needsLeadingZero": true
      },
      {
        "name": "Rwanda",
        "flag": "ðŸ‡·ðŸ‡¼",
        "code": "RW",
        "dial_code": "+250",
        "needsLeadingZero": true
      },
      {
        "name": "Saudi Arabia",
        "flag": "ðŸ‡¸ðŸ‡¦",
        "code": "SA",
        "dial_code": "+966",
        "needsLeadingZero": true
      },
      {
        "name": "Senegal",
        "flag": "ðŸ‡¸ðŸ‡³",
        "code": "SN",
        "dial_code": "+221",
        "needsLeadingZero": true
      },
      {
        "name": "Seychelles",
        "flag": "ðŸ‡¸ðŸ‡¨",
        "code": "SC",
        "dial_code": "+248",
        "needsLeadingZero": true
      },
      {
        "name": "Sierra Leone",
        "flag": "ðŸ‡¸ðŸ‡±",
        "code": "SL",
        "dial_code": "+232",
        "needsLeadingZero": true
      },
      {
        "name": "Somalia",
        "flag": "ðŸ‡¸ðŸ‡´",
        "code": "SO",
        "dial_code": "+252",
        "needsLeadingZero": true
      },
      {
        "name": "South Africa",
        "flag": "ðŸ‡¿ðŸ‡¦",
        "code": "ZA",
        "dial_code": "+27",
        "needsLeadingZero": true
      },
      {
        "name": "South Sudan",
        "flag": "ðŸ‡¸ðŸ‡¸",
        "code": "SS",
        "dial_code": "+211",
        "needsLeadingZero": true
      },
      {
        "name": "Sudan",
        "flag": "ðŸ‡¸ðŸ‡©",
        "code": "SD",
        "dial_code": "+249",
        "needsLeadingZero": true
      },
      {
        "name": "Swaziland",
        "flag": "ðŸ‡¸ðŸ‡¿",
        "code": "SZ",
        "dial_code": "+268",
        "needsLeadingZero": true
      },
      {
        "name": "Syrian Arab Republic",
        "flag": "ðŸ‡¸ðŸ‡¾",
        "code": "SY",
        "dial_code": "+963",
        "needsLeadingZero": true
      },
      {
        "name": "Tanzania, United Republic of Tanzania",
        "flag": "ðŸ‡¹ðŸ‡¿",
        "code": "TZ",
        "dial_code": "+255",
        "needsLeadingZero": true
      },
      {
        "name": "Togo",
        "flag": "ðŸ‡¹ðŸ‡¬",
        "code": "TG",
        "dial_code": "+228",
        "needsLeadingZero": true
      },
      {
        "name": "Tunisia",
        "flag": "ðŸ‡¹ðŸ‡³",
        "code": "TN",
        "dial_code": "+216",
        "needsLeadingZero": true
      },
      {
        "name": "Turkey",
        "flag": "ðŸ‡¹ðŸ‡·",
        "code": "TR",
        "dial_code": "+90",
        "needsLeadingZero": false
      },
      {
        "name": "Uganda",
        "flag": "ðŸ‡ºðŸ‡¬",
        "code": "UG",
        "dial_code": "+256",
        "needsLeadingZero": true
      },
      {
        "name": "United Arab Emirates",
        "flag": "ðŸ‡¦ðŸ‡ª",
        "code": "AE",
        "dial_code": "+971",
        "needsLeadingZero": true
      },
      {
        "name": "Western Sahara",
        "flag": "ðŸ‡ªðŸ‡­",
        "code": "EH",
        "dial_code": "+212",
        "needsLeadingZero": true
      },
      {
        "name": "Yemen",
        "flag": "ðŸ‡¾ðŸ‡ª",
        "code": "YE",
        "dial_code": "+967",
        "needsLeadingZero": true
      },
      {
        "name": "Zambia",
        "flag": "ðŸ‡¿ðŸ‡²",
        "code": "ZM",
        "dial_code": "+260",
        "needsLeadingZero": true
      },
      {
        "name": "Zimbabwe",
        "flag": "ðŸ‡¿ðŸ‡¼",
        "code": "ZW",
        "dial_code": "+263",
        "needsLeadingZero": true
      }
    ]
  }
}
