{
  "language": "Ø§Ù„Ù„ØºØ©",
  "home": {
    "title": "Ramses",
    "welcome": "Ù…Ø±Ø­Ø¨Ù‹Ø§ Ø¨ÙƒÙ… ÙÙŠ Ø±Ø§Ù…Ø³ÙŠØ³ØŒ ØªØ·Ø¨ÙŠÙ‚ÙƒÙ… Ù„Ø£ÙØ±ÙŠÙ‚ÙŠØ§ ÙˆØ§Ù„Ø´Ø±Ù‚ Ø§Ù„Ø£ÙˆØ³Ø·!",
    "startButton": "Ø§Ø¨Ø¯Ø£",
    "terms": "Ø£ÙˆØ§ÙÙ‚ Ø¹Ù„Ù‰ Ø¬Ù…ÙŠØ¹ Ø§Ù„Ø´Ø±ÙˆØ· ÙˆØ§Ù„Ø£Ø­ÙƒØ§Ù…"
  },
  "register": {
    "title": "Ø±Ù‚Ù… Ø§Ù„Ù‡Ø§ØªÙ",
    "body": "ÙŠØ±Ø¬Ù‰ Ø¥Ø¯Ø®Ø§Ù„ Ø±Ù‚Ù… Ù‡Ø§ØªÙÙƒ \n Ù„Ù„Ù…ØªØ§Ø¨Ø¹Ø©",
    "textInput": "Ø±Ù‚Ù… Ø§Ù„Ù‡Ø§ØªÙ",
    "sendCode": "Ø¥Ø±Ø³Ø§Ù„ Ø§Ù„Ø±Ù…Ø²"
  },
  "placeholder": {
    "title": "Ø±Ù‚Ù… Ø§Ù„Ù‡Ø§ØªÙ"
  },
  "invalidNumAlert": {
    "body": "ØªÙ†Ø³ÙŠÙ‚ Ø±Ù‚Ù… Ø§Ù„Ù‡Ø§ØªÙ ØºÙŠØ± ØµØ§Ù„Ø­"
  },
  "alertTermsError": {
    "body": "Ù„Ø·ÙØ§Ù‹ Ø¨Ø§ Ø´Ø±Ø§ÛŒØ· Ùˆ Ø¶ÙˆØ§Ø¨Ø· Ù…ÙˆØ§ÙÙ‚Øª Ú©Ù†ÛŒØ¯"
  },
  "alertConfirm": {
    "title": "ØªØ£ÙƒÙŠØ¯ Ø±Ù‚Ù… Ø§Ù„Ù‡Ø§ØªÙ",
    "body": "Ø³Ù†Ø±Ø³Ù„ Ø±Ù…Ø² Ø§Ù„ØªØ­Ù‚Ù‚ Ø¥Ù„Ù‰ Ø§Ù„Ø±Ù‚Ù… Ø§Ù„ØªØ§Ù„ÙŠ:"
  },
  "codeConfirmation": {
    "title": "Ø£Ø¯Ø®Ù„ Ø±Ù…Ø²Ùƒ",
    "body": "Ø£Ø¯Ø®Ù„ Ø§Ù„Ø±Ù…Ø² Ø§Ù„Ø°ÙŠ ØªÙ… Ø¥Ø±Ø³Ø§Ù„Ù‡ Ø¥Ù„ÙŠÙƒ Ø¹Ø¨Ø± Ø§Ù„Ø±Ø³Ø§Ø¦Ù„ Ø§Ù„Ù†ØµÙŠØ© \n Ù„Ø¥ÙƒÙ…Ø§Ù„ Ø§Ù„Ø¹Ù…Ù„ÙŠØ©",
    "confirmButton": "ØªØ£ÙƒÙŠØ¯",
    "reSendCode": "Ø¥Ø¹Ø§Ø¯Ø© Ø¥Ø±Ø³Ø§Ù„ Ø§Ù„Ø±Ù…Ø²",
    "reSendinCode": "Ø¥Ø¹Ø§Ø¯Ø© Ø§Ù„Ø¥Ø±Ø³Ø§Ù„ ÙÙŠ"
  },
  "success": {
    "body": "ØªÙ… Ø§Ù„ØªØ­Ù‚Ù‚ Ù…Ù† Ø­Ø³Ø§Ø¨Ùƒ Ø¨Ù†Ø¬Ø§Ø­ !!",
    "confirmButton": "Ø§Ø³ØªÙ…Ø±"
  },
  "countries": {
    "Ø§Ù„Ø¬Ø²Ø§ÛŒØ±": {
      "name": "Ø§Ù„Ø¬Ø²Ø§ÛŒØ±",
      "flag": "ğŸ‡©ğŸ‡¿",
      "code": "DZ",
      "dial_code": "+213",
      "needsLeadingZero": true
    },
    "Ø¢Ù†Ú¯ÙˆÙ„Ø§": {
      "name": "Ø¢Ù†Ú¯ÙˆÙ„Ø§",
      "flag": "ğŸ‡¦ğŸ‡´",
      "code": "AO",
      "dial_code": "+244",
      "needsLeadingZero": false
    },
    "Ø¨Ø­Ø±ÛŒÙ†": {
      "name": "Ø¨Ø­Ø±ÛŒÙ†",
      "flag": "ğŸ‡§ğŸ‡­",
      "code": "BH",
      "dial_code": "+973",
      "needsLeadingZero": false
    },
    "Ø¨Ù†ÛŒÙ†": {
      "name": "Ø¨Ù†ÛŒÙ†",
      "flag": "ğŸ‡§ğŸ‡¯",
      "code": "BJ",
      "dial_code": "+229",
      "needsLeadingZero": false
    },
    "Ø¨ÙˆØªØ³ÙˆØ§Ù†Ø§": {
      "name": "Ø¨ÙˆØªØ³ÙˆØ§Ù†Ø§",
      "flag": "ğŸ‡§ğŸ‡¼",
      "code": "BW",
      "dial_code": "+267",
      "needsLeadingZero": false
    },
    "Ø¨ÙˆØ±Ú©ÛŒÙ†Ø§ÙØ§Ø³Ùˆ": {
      "name": "Ø¨ÙˆØ±Ú©ÛŒÙ†Ø§ÙØ§Ø³Ùˆ",
      "flag": "ğŸ‡§ğŸ‡«",
      "code": "BF",
      "dial_code": "+226",
      "needsLeadingZero": false
    },
    "Ø¨ÙˆØ±ÙˆÙ†Ø¯ÛŒ": {
      "name": "Ø¨ÙˆØ±ÙˆÙ†Ø¯ÛŒ",
      "flag": "ğŸ‡§ğŸ‡®",
      "code": "BI",
      "dial_code": "+257",
      "needsLeadingZero": false
    },
    "Ú©Ø§Ù…Ø±ÙˆÙ†": {
      "name": "Ú©Ø§Ù…Ø±ÙˆÙ†",
      "flag": "ğŸ‡¨ğŸ‡²",
      "code": "CM",
      "dial_code": "+237",
      "needsLeadingZero": false
    },
    "Ú©ÛŒÙ¾ ÙˆØ±Ø¯": {
      "name": "Ú©ÛŒÙ¾ ÙˆØ±Ø¯",
      "flag": "ğŸ‡¨ğŸ‡»",
      "code": "CV",
      "dial_code": "+238",
      "needsLeadingZero": false
    },
    "Ø¬Ù…Ù‡ÙˆØ±ÛŒ Ø¢ÙØ±ÛŒÙ‚Ø§ÛŒ Ù…Ø±Ú©Ø²ÛŒ": {
      "name": "Ø¬Ù…Ù‡ÙˆØ±ÛŒ Ø¢ÙØ±ÛŒÙ‚Ø§ÛŒ Ù…Ø±Ú©Ø²ÛŒ",
      "flag": "ğŸ‡¨ğŸ‡«",
      "code": "CF",
      "dial_code": "+236",
      "needsLeadingZero": false
    },
    "Ú†Ø§Ø¯": {
      "name": "Ú†Ø§Ø¯",
      "flag": "ğŸ‡¹ğŸ‡©",
      "code": "TD",
      "dial_code": "+235",
      "needsLeadingZero": false
    },
    "Ú©ÙˆÙ…ÙˆØ±": {
      "name": "Ú©ÙˆÙ…ÙˆØ±",
      "flag": "ğŸ‡°ğŸ‡²",
      "code": "KM",
      "dial_code": "+269",
      "needsLeadingZero": false
    },
    "Ú©Ù†Ú¯Ùˆ": {
      "name": "Ú©Ù†Ú¯Ùˆ",
      "flag": "ğŸ‡¨ğŸ‡¬",
      "code": "CG",
      "dial_code": "+242",
      "needsLeadingZero": true
    },
    "Ø¬Ù…Ù‡ÙˆØ±ÛŒ Ø¯Ù…ÙˆÚ©Ø±Ø§ØªÛŒÚ© Ú©Ù†Ú¯Ùˆ": {
      "name": "Ø¬Ù…Ù‡ÙˆØ±ÛŒ Ø¯Ù…ÙˆÚ©Ø±Ø§ØªÛŒÚ© Ú©Ù†Ú¯Ùˆ",
      "flag": "ğŸ‡¨ğŸ‡©",
      "code": "CD",
      "dial_code": "+243",
      "needsLeadingZero": true
    },
    "Ù‚Ø¨Ø±Ø³": {
      "name": "Ù‚Ø¨Ø±Ø³",
      "flag": "ğŸ‡¨ğŸ‡¾",
      "code": "CY",
      "dial_code": "+357",
      "needsLeadingZero": false
    },
    "Ø³Ø§Ø­Ù„ Ø¹Ø§Ø¬": {
      "name": "Ø³Ø§Ø­Ù„ Ø¹Ø§Ø¬",
      "flag": "ğŸ‡¨ğŸ‡®",
      "code": "CI",
      "dial_code": "+225",
      "needsLeadingZero": true
    },
    "Ø¬ÛŒØ¨ÙˆØªÛŒ": {
      "name": "Ø¬ÛŒØ¨ÙˆØªÛŒ",
      "flag": "ğŸ‡©ğŸ‡¯",
      "code": "DJ",
      "dial_code": "+253",
      "needsLeadingZero": false
    },
    "Ù…ØµØ±": {
      "name": "Ù…ØµØ±",
      "flag": "ğŸ‡ªğŸ‡¬",
      "code": "EG",
      "dial_code": "+20",
      "needsLeadingZero": true
    },
    "Ú¯ÛŒÙ†Ù‡ Ø§Ø³ØªÙˆØ§ÛŒÛŒ": {
      "name": "Ú¯ÛŒÙ†Ù‡ Ø§Ø³ØªÙˆØ§ÛŒÛŒ",
      "flag": "ğŸ‡¬ğŸ‡¶",
      "code": "GQ",
      "dial_code": "+240",
      "needsLeadingZero": false
    },
    "Ø§Ø±ÛŒØªØ±Ù‡": {
      "name": "Ø§Ø±ÛŒØªØ±Ù‡",
      "flag": "ğŸ‡ªğŸ‡·",
      "code": "ER",
      "dial_code": "+291",
      "needsLeadingZero": false
    },
    "Ø§ØªÛŒÙˆÙ¾ÛŒ": {
      "name": "Ø§ØªÛŒÙˆÙ¾ÛŒ",
      "flag": "ğŸ‡ªğŸ‡¹",
      "code": "ET",
      "dial_code": "+251",
      "needsLeadingZero": true
    },
    "Ú¯Ø§Ø¨Ù†": {
      "name": "Ú¯Ø§Ø¨Ù†",
      "flag": "ğŸ‡¬ğŸ‡¦",
      "code": "GA",
      "dial_code": "+241",
      "needsLeadingZero": true
    },
    "Ú¯Ø§Ù…Ø¨ÛŒØ§": {
      "name": "Ú¯Ø§Ù…Ø¨ÛŒØ§",
      "flag": "ğŸ‡¬ğŸ‡²",
      "code": "GM",
      "dial_code": "+220",
      "needsLeadingZero": false
    },
    "ØºÙ†Ø§": {
      "name": "ØºÙ†Ø§",
      "flag": "ğŸ‡¬ğŸ‡­",
      "code": "GH",
      "dial_code": "+233",
      "needsLeadingZero": true
    },
    "Ú¯ÛŒÙ†Ù‡": {
      "name": "Ú¯ÛŒÙ†Ù‡",
      "flag": "ğŸ‡¬ğŸ‡³",
      "code": "GN",
      "dial_code": "+224",
      "needsLeadingZero": false
    },
    "Ú¯ÛŒÙ†Ù‡ Ø¨ÛŒØ³Ø§Ø¦Ùˆ": {
      "name": "Ú¯ÛŒÙ†Ù‡ Ø¨ÛŒØ³Ø§Ø¦Ùˆ",
      "flag": "ğŸ‡¬ğŸ‡¼",
      "code": "GW",
      "dial_code": "+245",
      "needsLeadingZero": false
    },
    "Ø§ÛŒØ±Ø§Ù†": {
      "name": "Ø§ÛŒØ±Ø§Ù†",
      "flag": "ğŸ‡®ğŸ‡·",
      "code": "IR",
      "dial_code": "+98",
      "needsLeadingZero": true
    },
    "Ø¹Ø±Ø§Ù‚": {
      "name": "Ø¹Ø±Ø§Ù‚",
      "flag": "ğŸ‡®ğŸ‡¶",
      "code": "IQ",
      "dial_code": "+964",
      "needsLeadingZero": true
    },
    "Ø§Ø³Ø±Ø§Ø¦ÛŒÙ„": {
      "name": "Ø§Ø³Ø±Ø§Ø¦ÛŒÙ„",
      "flag": "ğŸ‡®ğŸ‡±",
      "code": "IL",
      "dial_code": "+972",
      "needsLeadingZero": true
    },
    "Ø§Ø±Ø¯Ù†": {
      "name": "Ø§Ø±Ø¯Ù†",
      "flag": "ğŸ‡¯ğŸ‡´",
      "code": "JO",
      "dial_code": "+962",
      "needsLeadingZero": true
    },
    "Ú©Ù†ÛŒØ§": {
      "name": "Ú©Ù†ÛŒØ§",
      "flag": "ğŸ‡°ğŸ‡ª",
      "code": "KE",
      "dial_code": "+254",
      "needsLeadingZero": true
    },
    "Ú©ÙˆÛŒØª": {
      "name": "Ú©ÙˆÛŒØª",
      "flag": "ğŸ‡°ğŸ‡¼",
      "code": "KW",
      "dial_code": "+965",
      "needsLeadingZero": false
    },
    "Ù„Ø¨Ù†Ø§Ù†": {
      "name": "Ù„Ø¨Ù†Ø§Ù†",
      "flag": "ğŸ‡±ğŸ‡§",
      "code": "LB",
      "dial_code": "+961",
      "needsLeadingZero": true
    },
    "Ù„Ø³ÙˆØªÙˆ": {
      "name": "Ù„Ø³ÙˆØªÙˆ",
      "flag": "ğŸ‡±ğŸ‡¸",
      "code": "LS",
      "dial_code": "+266",
      "needsLeadingZero": false
    },
    "Ù„ÛŒØ¨Ø±ÛŒØ§": {
      "name": "Ù„ÛŒØ¨Ø±ÛŒØ§",
      "flag": "ğŸ‡±ğŸ‡·",
      "code": "LR",
      "dial_code": "+231",
      "needsLeadingZero": true
    },
    "Ù„ÛŒØ¨ÛŒ": {
      "name": "Ù„ÛŒØ¨ÛŒ",
      "flag": "ğŸ‡±ğŸ‡¾",
      "code": "LY",
      "dial_code": "+218",
      "needsLeadingZero": true
    },
    "Ù…Ø§Ø¯Ø§Ú¯Ø§Ø³Ú©Ø§Ø±": {
      "name": "Ù…Ø§Ø¯Ø§Ú¯Ø§Ø³Ú©Ø§Ø±",
      "flag": "ğŸ‡²ğŸ‡¬",
      "code": "MG",
      "dial_code": "+261",
      "needsLeadingZero": true
    },
    "Ù…Ø§Ù„Ø§ÙˆÛŒ": {
      "name": "Ù…Ø§Ù„Ø§ÙˆÛŒ",
      "flag": "ğŸ‡²ğŸ‡¼",
      "code": "MW",
      "dial_code": "+265",
      "needsLeadingZero": true
    },
    "Ù…Ø§Ù„ÛŒ": {
      "name": "Ù…Ø§Ù„ÛŒ",
      "flag": "ğŸ‡²ğŸ‡±",
      "code": "ML",
      "dial_code": "+223",
      "needsLeadingZero": false
    },
    "Ù…ÙˆØ±ÛŒØªØ§Ù†ÛŒ": {
      "name": "Ù…ÙˆØ±ÛŒØªØ§Ù†ÛŒ",
      "flag": "ğŸ‡²ğŸ‡¹",
      "code": "MR",
      "dial_code": "+222",
      "needsLeadingZero": false
    },
    "Ù…ÙˆØ±ÛŒØ³": {
      "name": "Ù…ÙˆØ±ÛŒØ³",
      "flag": "ğŸ‡²ğŸ‡º",
      "code": "MU",
      "dial_code": "+230",
      "needsLeadingZero": false
    },
    "Ù…ÙˆØ²Ø§Ù…Ø¨ÛŒÚ©": {
      "name": "Ù…ÙˆØ²Ø§Ù…Ø¨ÛŒÚ©",
      "flag": "ğŸ‡²ğŸ‡¿",
      "code": "MZ",
      "dial_code": "+258",
      "needsLeadingZero": false
    },
    "Ù†Ø§Ù…ÛŒØ¨ÛŒØ§": {
      "name": "Ù†Ø§Ù…ÛŒØ¨ÛŒØ§",
      "flag": "ğŸ‡³ğŸ‡¦",
      "code": "NA",
      "dial_code": "+264",
      "needsLeadingZero": false
    },
    "Ù†ÛŒØ¬Ø±": {
      "name": "Ù†ÛŒØ¬Ø±",
      "flag": "ğŸ‡³ğŸ‡ª",
      "code": "NE",
      "dial_code": "+227",
      "needsLeadingZero": false
    },
    "Ù†ÛŒØ¬Ø±ÛŒÙ‡": {
      "name": "Ù†ÛŒØ¬Ø±ÛŒÙ‡",
      "flag": "ğŸ‡³ğŸ‡¬",
      "code": "NG",
      "dial_code": "+234",
      "needsLeadingZero": true
    },
    "Ø±ÙˆØ§Ù†Ø¯Ø§": {
      "name": "Ø±ÙˆØ§Ù†Ø¯Ø§",
      "flag": "ğŸ‡·ğŸ‡¼",
      "code": "RW",
      "dial_code": "+250",
      "needsLeadingZero": true
    },
    "Ø¹Ø±Ø¨Ø³ØªØ§Ù† Ø³Ø¹ÙˆØ¯ÛŒ": {
      "name": "Ø¹Ø±Ø¨Ø³ØªØ§Ù† Ø³Ø¹ÙˆØ¯ÛŒ",
      "flag": "ğŸ‡¸ğŸ‡¦",
      "code": "SA",
      "dial_code": "+966",
      "needsLeadingZero": true
    },
    "Ø³ÛŒØ´Ù„": {
      "name": "Ø³ÛŒØ´Ù„",
      "flag": "ğŸ‡¸ğŸ‡¨",
      "code": "SC",
      "dial_code": "+248",
      "needsLeadingZero": false
    },
    "Ø³ÛŒØ±Ø§Ù„Ø¦ÙˆÙ†": {
      "name": "Ø³ÛŒØ±Ø§Ù„Ø¦ÙˆÙ†",
      "flag": "ğŸ‡¸ğŸ‡±",
      "code": "SL",
      "dial_code": "+232",
      "needsLeadingZero": false
    },
    "Ø³ÙˆÙ…Ø§Ù„ÛŒ": {
      "name": "Ø³ÙˆÙ…Ø§Ù„ÛŒ",
      "flag": "ğŸ‡¸ğŸ‡´",
      "code": "SO",
      "dial_code": "+252",
      "needsLeadingZero": false
    },
    "Ø¢ÙØ±ÛŒÙ‚Ø§ÛŒ Ø¬Ù†ÙˆØ¨ÛŒ": {
      "name": "Ø¢ÙØ±ÛŒÙ‚Ø§ÛŒ Ø¬Ù†ÙˆØ¨ÛŒ",
      "flag": "ğŸ‡¿ğŸ‡¦",
      "code": "ZA",
      "dial_code": "+27",
      "needsLeadingZero": true
    },
    "Ø³ÙˆØ¯Ø§Ù† Ø¬Ù†ÙˆØ¨ÛŒ": {
      "name": "Ø³ÙˆØ¯Ø§Ù† Ø¬Ù†ÙˆØ¨ÛŒ",
      "flag": "ğŸ‡¸ğŸ‡¸",
      "code": "SS",
      "dial_code": "+211",
      "needsLeadingZero": false
    },
    "Ø³ÙˆØ¯Ø§Ù†": {
      "name": "Ø³ÙˆØ¯Ø§Ù†",
      "flag": "ğŸ‡¸ğŸ‡©",
      "code": "SD",
      "dial_code": "+249",
      "needsLeadingZero": false
    },
    "Ø§Ø³ÙˆØ§ØªÛŒÙ†ÛŒ": {
      "name": "Ø§Ø³ÙˆØ§ØªÛŒÙ†ÛŒ",
      "flag": "ğŸ‡¸ğŸ‡¿",
      "code": "SZ",
      "dial_code": "+268",
      "needsLeadingZero": false
    },
    "ØªØ§Ù†Ø²Ø§Ù†ÛŒØ§": {
      "name": "ØªØ§Ù†Ø²Ø§Ù†ÛŒØ§",
      "flag": "ğŸ‡¹ğŸ‡¿",
      "code": "TZ",
      "dial_code": "+255",
      "needsLeadingZero": true
    },
    "ØªÙˆÚ¯Ùˆ": {
      "name": "ØªÙˆÚ¯Ùˆ",
      "flag": "ğŸ‡¹ğŸ‡¬",
      "code": "TG",
      "dial_code": "+228",
      "needsLeadingZero": false
    },
    "ØªÙˆÙ†Ø³": {
      "name": "ØªÙˆÙ†Ø³",
      "flag": "ğŸ‡¹ğŸ‡³",
      "code": "TN",
      "dial_code": "+216",
      "needsLeadingZero": false
    },
    "Ø§ÙˆÚ¯Ø§Ù†Ø¯Ø§": {
      "name": "Ø§ÙˆÚ¯Ø§Ù†Ø¯Ø§",
      "flag": "ğŸ‡ºğŸ‡¬",
      "code": "UG",
      "dial_code": "+256",
      "needsLeadingZero": true
    },
    "Ø²Ø§Ù…Ø¨ÛŒØ§": {
      "name": "Ø²Ø§Ù…Ø¨ÛŒØ§",
      "flag": "ğŸ‡¿ğŸ‡²",
      "code": "ZM",
      "dial_code": "+260",
      "needsLeadingZero": true
    },
    "Ø²ÛŒÙ…Ø¨Ø§Ø¨ÙˆÙ‡": {
      "name": "Ø²ÛŒÙ…Ø¨Ø§Ø¨ÙˆÙ‡",
      "flag": "ğŸ‡¿ğŸ‡¼",
      "code": "ZW",
      "dial_code": "+263",
      "needsLeadingZero": false
    }
  }
}
