{
  "language": "Harshe",
  "home": {
    "title": "Ramses",
    "welcome": "Barka da zuwa Ramses, aikace-aikacenku don Afirka da Gabashin Tsakiya!",
    "startButton": "Fara",
    "terms": "Na yarda da duk sharuÉ—É—an da ka'idoji"
  },
  "register": {
    "title": "Lambar Waya",
    "body": "Don Allah shigar da lambar wayarka \n don ci gaba",
    "textInput": "Lambar waya",
    "sendCode": "Aika Lambar"
  },
  "placeholder": {
    "title": "Lambar waya"
  },
  "invalidNumAlert": {
    "body": "Tsarin lambar waya ba daidai ba ne"
  },
  "alertTermsError": {
    "body": "Don Allah yarda da sharuÉ—É—a da ka'idoji"
  },
  "alertConfirm": {
    "title": "Tantance Lambar Waya",
    "body": "Za mu aika lambar tabbatarwa zuwa lambar mai zuwa:"
  },
  "codeConfirmation": {
    "title": "Shigar da Lambarka",
    "body": "Shigar da lamban da aka aiko maka ta SMS \n don kammala aikin",
    "confirmButton": "Tantance",
    "reSendCode": "Aika Tare da Lamba",
    "reSendinCode": "Aika tare da"
  },
  "success": {
    "body": "An tabbatar da asusunka cikin nasara!!",
    "confirmButton": "Ci gaba"
  },
  "countries": [
    {
      "name": "Algeria",
      "flag": "ðŸ‡©ðŸ‡¿",
      "code": "DZ",
      "dial_code": "+213",
      "needsLeadingZero": true
    },
    {
      "name": "Angola",
      "flag": "ðŸ‡¦ðŸ‡´",
      "code": "AO",
      "dial_code": "+244",
      "needsLeadingZero": false
    },
    {
      "name": "Bahrain",
      "flag": "ðŸ‡§ðŸ‡­",
      "code": "BH",
      "dial_code": "+973",
      "needsLeadingZero": false
    },
    {
      "name": "Benin",
      "flag": "ðŸ‡§ðŸ‡¯",
      "code": "BJ",
      "dial_code": "+229",
      "needsLeadingZero": false
    },
    {
      "name": "Botswana",
      "flag": "ðŸ‡§ðŸ‡¼",
      "code": "BW",
      "dial_code": "+267",
      "needsLeadingZero": false
    },
    {
      "name": "Burkina Faso",
      "flag": "ðŸ‡§ðŸ‡«",
      "code": "BF",
      "dial_code": "+226",
      "needsLeadingZero": false
    },
    {
      "name": "Burundi",
      "flag": "ðŸ‡§ðŸ‡®",
      "code": "BI",
      "dial_code": "+257",
      "needsLeadingZero": false
    },
    {
      "name": "Kamaru",
      "flag": "ðŸ‡¨ðŸ‡²",
      "code": "CM",
      "dial_code": "+237",
      "needsLeadingZero": false
    },
    {
      "name": "Cape Verde",
      "flag": "ðŸ‡¨ðŸ‡»",
      "code": "CV",
      "dial_code": "+238",
      "needsLeadingZero": false
    },
    {
      "name": "Jamhurin Afirka ta Tsakiya",
      "flag": "ðŸ‡¨ðŸ‡«",
      "code": "CF",
      "dial_code": "+236",
      "needsLeadingZero": false
    },
    {
      "name": "Chad",
      "flag": "ðŸ‡¹ðŸ‡©",
      "code": "TD",
      "dial_code": "+235",
      "needsLeadingZero": false
    },
    {
      "name": "Komoro",
      "flag": "ðŸ‡°ðŸ‡²",
      "code": "KM",
      "dial_code": "+269",
      "needsLeadingZero": false
    },
    {
      "name": "Kongo",
      "flag": "ðŸ‡¨ðŸ‡¬",
      "code": "CG",
      "dial_code": "+242",
      "needsLeadingZero": true
    },
    {
      "name": "Kongo DRC",
      "flag": "ðŸ‡¨ðŸ‡©",
      "code": "CD",
      "dial_code": "+243",
      "needsLeadingZero": true
    },
    {
      "name": "Kypri",
      "flag": "ðŸ‡¨ðŸ‡¾",
      "code": "CY",
      "dial_code": "+357",
      "needsLeadingZero": false
    },
    {
      "name": "CÃ´te d'Ivoire",
      "flag": "ðŸ‡¨ðŸ‡®",
      "code": "CI",
      "dial_code": "+225",
      "needsLeadingZero": true
    },
    {
      "name": "Djibouti",
      "flag": "ðŸ‡©ðŸ‡¯",
      "code": "DJ",
      "dial_code": "+253",
      "needsLeadingZero": false
    },
    {
      "name": "Masar",
      "flag": "ðŸ‡ªðŸ‡¬",
      "code": "EG",
      "dial_code": "+20",
      "needsLeadingZero": true
    },
    {
      "name": "Ekuador",
      "flag": "ðŸ‡¬ðŸ‡¶",
      "code": "GQ",
      "dial_code": "+240",
      "needsLeadingZero": false
    },
    {
      "name": "Eritrea",
      "flag": "ðŸ‡ªðŸ‡·",
      "code": "ER",
      "dial_code": "+291",
      "needsLeadingZero": false
    },
    {
      "name": "Habasha",
      "flag": "ðŸ‡ªðŸ‡¹",
      "code": "ET",
      "dial_code": "+251",
      "needsLeadingZero": true
    },
    {
      "name": "Gabon",
      "flag": "ðŸ‡¬ðŸ‡¦",
      "code": "GA",
      "dial_code": "+241",
      "needsLeadingZero": true
    },
    {
      "name": "Gambia",
      "flag": "ðŸ‡¬ðŸ‡²",
      "code": "GM",
      "dial_code": "+220",
      "needsLeadingZero": false
    },
    {
      "name": "Ghana",
      "flag": "ðŸ‡¬ðŸ‡­",
      "code": "GH",
      "dial_code": "+233",
      "needsLeadingZero": true
    },
    {
      "name": "Guinea",
      "flag": "ðŸ‡¬ðŸ‡³",
      "code": "GN",
      "dial_code": "+224",
      "needsLeadingZero": false
    },
    {
      "name": "Guinea-Bissau",
      "flag": "ðŸ‡¬ðŸ‡¼",
      "code": "GW",
      "dial_code": "+245",
      "needsLeadingZero": false
    },
    {
      "name": "Iran",
      "flag": "ðŸ‡®ðŸ‡·",
      "code": "IR",
      "dial_code": "+98",
      "needsLeadingZero": true
    },
    {
      "name": "Iraki",
      "flag": "ðŸ‡®ðŸ‡¶",
      "code": "IQ",
      "dial_code": "+964",
      "needsLeadingZero": true
    },
    {
      "name": "Israeli",
      "flag": "ðŸ‡®ðŸ‡±",
      "code": "IL",
      "dial_code": "+972",
      "needsLeadingZero": true
    },
    {
      "name": "Yordani",
      "flag": "ðŸ‡¯ðŸ‡´",
      "code": "JO",
      "dial_code": "+962",
      "needsLeadingZero": true
    },
    {
      "name": "Kenya",
      "flag": "ðŸ‡°ðŸ‡ª",
      "code": "KE",
      "dial_code": "+254",
      "needsLeadingZero": true
    },
    {
      "name": "Kuwait",
      "flag": "ðŸ‡°ðŸ‡¼",
      "code": "KW",
      "dial_code": "+965",
      "needsLeadingZero": false
    },
    {
      "name": "Lebanon",
      "flag": "ðŸ‡±ðŸ‡§",
      "code": "LB",
      "dial_code": "+961",
      "needsLeadingZero": true
    },
    {
      "name": "Lesotho",
      "flag": "ðŸ‡±ðŸ‡¸",
      "code": "LS",
      "dial_code": "+266",
      "needsLeadingZero": false
    },
    {
      "name": "Liberia",
      "flag": "ðŸ‡±ðŸ‡·",
      "code": "LR",
      "dial_code": "+231",
      "needsLeadingZero": true
    },
    {
      "name": "Libya",
      "flag": "ðŸ‡±ðŸ‡¾",
      "code": "LY",
      "dial_code": "+218",
      "needsLeadingZero": true
    },
    {
      "name": "Madagaska",
      "flag": "ðŸ‡²ðŸ‡¬",
      "code": "MG",
      "dial_code": "+261",
      "needsLeadingZero": true
    },
    {
      "name": "Malawi",
      "flag": "ðŸ‡²ðŸ‡¼",
      "code": "MW",
      "dial_code": "+265",
      "needsLeadingZero": true
    },
    {
      "name": "Mali",
      "flag": "ðŸ‡²ðŸ‡±",
      "code": "ML",
      "dial_code": "+223",
      "needsLeadingZero": false
    },
    {
      "name": "Mauritania",
      "flag": "ðŸ‡²ðŸ‡¹",
      "code": "MR",
      "dial_code": "+222",
      "needsLeadingZero": false
    },
    {
      "name": "Moroko",
      "flag": "ðŸ‡²ðŸ‡¦",
      "code": "MA",
      "dial_code": "+212",
      "needsLeadingZero": true
    },
    {
      "name": "Msumbiji",
      "flag": "ðŸ‡²ðŸ‡¿",
      "code": "MZ",
      "dial_code": "+258",
      "needsLeadingZero": false
    },
    {
      "name": "Uholanzi",
      "flag": "ðŸ‡³ðŸ‡±",
      "code": "NL",
      "dial_code": "+31",
      "needsLeadingZero": false
    },
    {
      "name": "Nijar",
      "flag": "ðŸ‡³ðŸ‡ª",
      "code": "NE",
      "dial_code": "+227",
      "needsLeadingZero": true
    },
    {
      "name": "Nijeriya",
      "flag": "ðŸ‡³ðŸ‡¬",
      "code": "NG",
      "dial_code": "+234",
      "needsLeadingZero": true
    },
    {
      "name": "Ruwanda",
      "flag": "ðŸ‡·ðŸ‡¼",
      "code": "RW",
      "dial_code": "+250",
      "needsLeadingZero": true
    },
    {
      "name": "Arabiyyan Saudiyya",
      "flag": "ðŸ‡¸ðŸ‡¦",
      "code": "SA",
      "dial_code": "+966",
      "needsLeadingZero": true
    },
    {
      "name": "Seychelles",
      "flag": "ðŸ‡¸ðŸ‡¨",
      "code": "SC",
      "dial_code": "+248",
      "needsLeadingZero": false
    },
    {
      "name": "Sierra Leone",
      "flag": "ðŸ‡¸ðŸ‡±",
      "code": "SL",
      "dial_code": "+232",
      "needsLeadingZero": false
    },
    {
      "name": "Somaliya",
      "flag": "ðŸ‡¸ðŸ‡´",
      "code": "SO",
      "dial_code": "+252",
      "needsLeadingZero": false
    },
    {
      "name": "Afirka Ta Kudu",
      "flag": "ðŸ‡¿ðŸ‡¦",
      "code": "ZA",
      "dial_code": "+27",
      "needsLeadingZero": true
    },
    {
      "name": "Sudan Ta Kudu",
      "flag": "ðŸ‡¸ðŸ‡¸",
      "code": "SS",
      "dial_code": "+211",
      "needsLeadingZero": false
    },
    {
      "name": "Sudan",
      "flag": "ðŸ‡¸ðŸ‡©",
      "code": "SD",
      "dial_code": "+249",
      "needsLeadingZero": false
    },
    {
      "name": "Eswatini",
      "flag": "ðŸ‡¸ðŸ‡¿",
      "code": "SZ",
      "dial_code": "+268",
      "needsLeadingZero": false
    },
    {
      "name": "Tanzania",
      "flag": "ðŸ‡¹ðŸ‡¿",
      "code": "TZ",
      "dial_code": "+255",
      "needsLeadingZero": true
    },
    {
      "name": "Togo",
      "flag": "ðŸ‡¹ðŸ‡¬",
      "code": "TG",
      "dial_code": "+228",
      "needsLeadingZero": false
    },
    {
      "name": "Tunisia",
      "flag": "ðŸ‡¹ðŸ‡³",
      "code": "TN",
      "dial_code": "+216",
      "needsLeadingZero": false
    },
    {
      "name": "Uganda",
      "flag": "ðŸ‡ºðŸ‡¬",
      "code": "UG",
      "dial_code": "+256",
      "needsLeadingZero": true
    },
    {
      "name": "Zambia",
      "flag": "ðŸ‡¿ðŸ‡²",
      "code": "ZM",
      "dial_code": "+260",
      "needsLeadingZero": true
    },
    {
      "name": "Zimbabwe",
      "flag": "ðŸ‡¿ðŸ‡¼",
      "code": "ZW",
      "dial_code": "+263",
      "needsLeadingZero": false
    }
  ]
}
