{
  "language": "Afaan",
  "home": {
    "title": "Ramses",
    "welcome": "Ramses, app keessan Aafrikaa fi Baha Giddu Galeessaa!",
    "startButton": "Jalqabu",
    "terms": "Seera fi haala hundaaf nan waliigala"
  },
  "register": {
    "title": "Lakkofsa Bilbilaa",
    "body": "Maamilaa bilbilaa keessan galchuu \n itti fufuu barbaachisa",
    "textInput": "Lakkofsa bilbilaa",
    "sendCode": "Koodii ergaa"
  },
  "placeholder": {
    "title": "Lakkofsa bilbilaa"
  },
  "invalidNumAlert": {
    "body": "Akkasumas lakkofsi bilbilaa dogoggora"
  },
  "alertTermsError": {
    "body": "Mee seerota fi haala waliigalaaf"
  },
  "alertConfirm": {
    "title": "Waliigalte lakkofsa bilbilaa",
    "body": "Koodii mirkaneessaa lakkofsa armaan gadii gahiidha:"
  },
  "codeConfirmation": {
    "title": "Koodii keeti galchi",
    "body": "SMS irratti siif ergame koodii galchi \n hojii xumuruu",
    "confirmButton": "Mirkaneessi",
    "reSendCode": "Koodii deebi'aa ergaa",
    "reSendinCode": "Deebi'aa"
  },
  "success": {
    "body": "Akkaawuntii kee milkiidhaan mirkanaa'e!!",
    "confirmButton": "Itti fufi"
  },
  "countries": [
    {
      "name": "Aljeeriya",
      "flag": "ðŸ‡©ðŸ‡¿",
      "code": "DZ",
      "dial_code": "+213",
      "needsLeadingZero": true
    },
    {
      "name": "Angoolaa",
      "flag": "ðŸ‡¦ðŸ‡´",
      "code": "AO",
      "dial_code": "+244",
      "needsLeadingZero": false
    },
    {
      "name": "Bahreeni",
      "flag": "ðŸ‡§ðŸ‡­",
      "code": "BH",
      "dial_code": "+973",
      "needsLeadingZero": false
    },
    {
      "name": "Beniin",
      "flag": "ðŸ‡§ðŸ‡¯",
      "code": "BJ",
      "dial_code": "+229",
      "needsLeadingZero": false
    },
    {
      "name": "Botswaanaa",
      "flag": "ðŸ‡§ðŸ‡¼",
      "code": "BW",
      "dial_code": "+267",
      "needsLeadingZero": false
    },
    {
      "name": "Burkiinaa Faasoo",
      "flag": "ðŸ‡§ðŸ‡«",
      "code": "BF",
      "dial_code": "+226",
      "needsLeadingZero": false
    },
    {
      "name": "Burundii",
      "flag": "ðŸ‡§ðŸ‡®",
      "code": "BI",
      "dial_code": "+257",
      "needsLeadingZero": false
    },
    {
      "name": "Kaameeroon",
      "flag": "ðŸ‡¨ðŸ‡²",
      "code": "CM",
      "dial_code": "+237",
      "needsLeadingZero": false
    },
    {
      "name": "Kaap Verdi",
      "flag": "ðŸ‡¨ðŸ‡»",
      "code": "CV",
      "dial_code": "+238",
      "needsLeadingZero": false
    },
    {
      "name": "Rippebulika Afriikaa Gidduugaleessaa",
      "flag": "ðŸ‡¨ðŸ‡«",
      "code": "CF",
      "dial_code": "+236",
      "needsLeadingZero": false
    },
    {
      "name": "Chaad",
      "flag": "ðŸ‡¹ðŸ‡©",
      "code": "TD",
      "dial_code": "+235",
      "needsLeadingZero": false
    },
    {
      "name": "Koonaamooros",
      "flag": "ðŸ‡°ðŸ‡²",
      "code": "KM",
      "dial_code": "+269",
      "needsLeadingZero": false
    },
    {
      "name": "Koongoo",
      "flag": "ðŸ‡¨ðŸ‡¬",
      "code": "CG",
      "dial_code": "+242",
      "needsLeadingZero": true
    },
    {
      "name": "Koongoo DRC",
      "flag": "ðŸ‡¨ðŸ‡©",
      "code": "CD",
      "dial_code": "+243",
      "needsLeadingZero": true
    },
    {
      "name": "Qipiroos",
      "flag": "ðŸ‡¨ðŸ‡¾",
      "code": "CY",
      "dial_code": "+357",
      "needsLeadingZero": false
    },
    {
      "name": "Koote Diivoor",
      "flag": "ðŸ‡¨ðŸ‡®",
      "code": "CI",
      "dial_code": "+225",
      "needsLeadingZero": true
    },
    {
      "name": "Jibuutii",
      "flag": "ðŸ‡©ðŸ‡¯",
      "code": "DJ",
      "dial_code": "+253",
      "needsLeadingZero": false
    },
    {
      "name": "Misira",
      "flag": "ðŸ‡ªðŸ‡¬",
      "code": "EG",
      "dial_code": "+20",
      "needsLeadingZero": true
    },
    {
      "name": "Gini Equatoriyaalii",
      "flag": "ðŸ‡¬ðŸ‡¶",
      "code": "GQ",
      "dial_code": "+240",
      "needsLeadingZero": false
    },
    {
      "name": "Eritiraa",
      "flag": "ðŸ‡ªðŸ‡·",
      "code": "ER",
      "dial_code": "+291",
      "needsLeadingZero": false
    },
    {
      "name": "Itoophiyaa",
      "flag": "ðŸ‡ªðŸ‡¹",
      "code": "ET",
      "dial_code": "+251",
      "needsLeadingZero": true
    },
    {
      "name": "Gaaboon",
      "flag": "ðŸ‡¬ðŸ‡¦",
      "code": "GA",
      "dial_code": "+241",
      "needsLeadingZero": true
    },
    {
      "name": "Gaambiyaa",
      "flag": "ðŸ‡¬ðŸ‡²",
      "code": "GM",
      "dial_code": "+220",
      "needsLeadingZero": false
    },
    {
      "name": "Ganaa",
      "flag": "ðŸ‡¬ðŸ‡­",
      "code": "GH",
      "dial_code": "+233",
      "needsLeadingZero": true
    },
    {
      "name": "Gini",
      "flag": "ðŸ‡¬ðŸ‡³",
      "code": "GN",
      "dial_code": "+224",
      "needsLeadingZero": false
    },
    {
      "name": "Gini-Bisaawu",
      "flag": "ðŸ‡¬ðŸ‡¼",
      "code": "GW",
      "dial_code": "+245",
      "needsLeadingZero": false
    },
    {
      "name": "Iraan",
      "flag": "ðŸ‡®ðŸ‡·",
      "code": "IR",
      "dial_code": "+98",
      "needsLeadingZero": true
    },
    {
      "name": "Iraaq",
      "flag": "ðŸ‡®ðŸ‡¶",
      "code": "IQ",
      "dial_code": "+964",
      "needsLeadingZero": true
    },
    {
      "name": "Isra'eel",
      "flag": "ðŸ‡®ðŸ‡±",
      "code": "IL",
      "dial_code": "+972",
      "needsLeadingZero": true
    },
    {
      "name": "Urdun",
      "flag": "ðŸ‡¯ðŸ‡´",
      "code": "JO",
      "dial_code": "+962",
      "needsLeadingZero": true
    },
    {
      "name": "Keeniyaa",
      "flag": "ðŸ‡°ðŸ‡ª",
      "code": "KE",
      "dial_code": "+254",
      "needsLeadingZero": true
    },
    {
      "name": "Kuweeti",
      "flag": "ðŸ‡°ðŸ‡¼",
      "code": "KW",
      "dial_code": "+965",
      "needsLeadingZero": false
    },
    {
      "name": "Lebanoon",
      "flag": "ðŸ‡±ðŸ‡§",
      "code": "LB",
      "dial_code": "+961",
      "needsLeadingZero": true
    },
    {
      "name": "Leesootoo",
      "flag": "ðŸ‡±ðŸ‡¸",
      "code": "LS",
      "dial_code": "+266",
      "needsLeadingZero": false
    },
    {
      "name": "Liberiyaa",
      "flag": "ðŸ‡±ðŸ‡·",
      "code": "LR",
      "dial_code": "+231",
      "needsLeadingZero": true
    },
    {
      "name": "Libiyaa",
      "flag": "ðŸ‡±ðŸ‡¾",
      "code": "LY",
      "dial_code": "+218",
      "needsLeadingZero": true
    },
    {
      "name": "Madagaaskaar",
      "flag": "ðŸ‡²ðŸ‡¬",
      "code": "MG",
      "dial_code": "+261",
      "needsLeadingZero": true
    },
    {
      "name": "Maalaawwii",
      "flag": "ðŸ‡²ðŸ‡¼",
      "code": "MW",
      "dial_code": "+265",
      "needsLeadingZero": true
    },
    {
      "name": "Maalii",
      "flag": "ðŸ‡²ðŸ‡±",
      "code": "ML",
      "dial_code": "+223",
      "needsLeadingZero": false
    },
    {
      "name": "Mawritaniyaa",
      "flag": "ðŸ‡²ðŸ‡¹",
      "code": "MR",
      "dial_code": "+222",
      "needsLeadingZero": false
    },
    {
      "name": "Moorokoo",
      "flag": "ðŸ‡²ðŸ‡¦",
      "code": "MA",
      "dial_code": "+212",
      "needsLeadingZero": true
    },
    {
      "name": "Mozaambik",
      "flag": "ðŸ‡²ðŸ‡¿",
      "code": "MZ",
      "dial_code": "+258",
      "needsLeadingZero": false
    },
    {
      "name": "Netherlaands",
      "flag": "ðŸ‡³ðŸ‡±",
      "code": "NL",
      "dial_code": "+31",
      "needsLeadingZero": false
    },
    {
      "name": "Nijeer",
      "flag": "ðŸ‡³ðŸ‡ª",
      "code": "NE",
      "dial_code": "+227",
      "needsLeadingZero": true
    },
    {
      "name": "Naayjeeriyaa",
      "flag": "ðŸ‡³ðŸ‡¬",
      "code": "NG",
      "dial_code": "+234",
      "needsLeadingZero": true
    },
    {
      "name": "Ruwaandaa",
      "flag": "ðŸ‡·ðŸ‡¼",
      "code": "RW",
      "dial_code": "+250",
      "needsLeadingZero": true
    },
    {
      "name": "Araa'iba Sawudii",
      "flag": "ðŸ‡¸ðŸ‡¦",
      "code": "SA",
      "dial_code": "+966",
      "needsLeadingZero": true
    },
    {
      "name": "Seeychels",
      "flag": "ðŸ‡¸ðŸ‡¨",
      "code": "SC",
      "dial_code": "+248",
      "needsLeadingZero": false
    },
    {
      "name": "Seeraaliyoon",
      "flag": "ðŸ‡¸ðŸ‡±",
      "code": "SL",
      "dial_code": "+232",
      "needsLeadingZero": false
    },
    {
      "name": "Soomaaliyaa",
      "flag": "ðŸ‡¸ðŸ‡´",
      "code": "SO",
      "dial_code": "+252",
      "needsLeadingZero": false
    },
    {
      "name": "Afriikaa Kibbaa",
      "flag": "ðŸ‡¿ðŸ‡¦",
      "code": "ZA",
      "dial_code": "+27",
      "needsLeadingZero": true
    },
    {
      "name": "Sudaan Kibbaa",
      "flag": "ðŸ‡¸ðŸ‡¸",
      "code": "SS",
      "dial_code": "+211",
      "needsLeadingZero": false
    },
    {
      "name": "Sudaan",
      "flag": "ðŸ‡¸ðŸ‡©",
      "code": "SD",
      "dial_code": "+249",
      "needsLeadingZero": false
    },
    {
      "name": "Eswaatiinii",
      "flag": "ðŸ‡¸ðŸ‡¿",
      "code": "SZ",
      "dial_code": "+268",
      "needsLeadingZero": false
    },
    {
      "name": "Taanzaniyaa",
      "flag": "ðŸ‡¹ðŸ‡¿",
      "code": "TZ",
      "dial_code": "+255",
      "needsLeadingZero": true
    },
    {
      "name": "Toogoo",
      "flag": "ðŸ‡¹ðŸ‡¬",
      "code": "TG",
      "dial_code": "+228",
      "needsLeadingZero": false
    },
    {
      "name": "Tuunisiyaa",
      "flag": "ðŸ‡¹ðŸ‡³",
      "code": "TN",
      "dial_code": "+216",
      "needsLeadingZero": false
    },
    {
      "name": "Ugaandaa",
      "flag": "ðŸ‡ºðŸ‡¬",
      "code": "UG",
      "dial_code": "+256",
      "needsLeadingZero": true
    },
    {
      "name": "Zaambiyaa",
      "flag": "ðŸ‡¿ðŸ‡²",
      "code": "ZM",
      "dial_code": "+260",
      "needsLeadingZero": true
    },
    {
      "name": "Ziimbaabuwee",
      "flag": "ðŸ‡¿ðŸ‡¼",
      "code": "ZW",
      "dial_code": "+263",
      "needsLeadingZero": false
    }
  ]
}
