{
  "language": "Dil",
  "home": {
    "title": "Ramses",
    "welcome": "Ramses'e, Afrika ve Orta DoÄŸu iÃ§in uygulamanÄ±za hoÅŸ geldiniz!",
    "startButton": "BaÅŸla",
    "terms": "TÃ¼m ÅŸartlar ve koÅŸullarÄ± kabul ediyorum"
  },
  "register": {
    "title": "Telefon NumarasÄ±",
    "body": "Devam etmek iÃ§in lÃ¼tfen telefon numaranÄ±zÄ± girin \n",
    "textInput": "Telefon numarasÄ±",
    "sendCode": "Kodu GÃ¶nder"
  },
  "placeholder": {
    "title": "Telefon numarasÄ±"
  },
  "invalidNumAlert": {
    "body": "GeÃ§ersiz telefon numarasÄ± formatÄ±"
  },
  "alertTermsError": {
    "body": "LÃ¼tfen ÅŸartlar ve koÅŸullarÄ± kabul edin"
  },
  "alertConfirm": {
    "title": "Telefon NumarasÄ± OnayÄ±",
    "body": "AÅŸaÄŸÄ±daki numaraya bir doÄŸrulama kodu gÃ¶ndereceÄŸiz:"
  },
  "codeConfirmation": {
    "title": "Kodu Girin",
    "body": "Ä°ÅŸlemi tamamlamak iÃ§in SMS ile gÃ¶nderilen kodu girin \n",
    "confirmButton": "Onayla",
    "reSendCode": "Kodu Yeniden GÃ¶nder",
    "reSendinCode": "Yeniden gÃ¶ndermede"
  },
  "success": {
    "body": "HesabÄ±nÄ±z baÅŸarÄ±yla doÄŸrulandÄ±!!",
    "confirmButton": "Devam Et"
  },
  "countries": [
    {
      "name": "Cezayir",
      "flag": "ğŸ‡©ğŸ‡¿",
      "code": "DZ",
      "dial_code": "+213",
      "needsLeadingZero": true
    },
    {
      "name": "Angola",
      "flag": "ğŸ‡¦ğŸ‡´",
      "code": "AO",
      "dial_code": "+244",
      "needsLeadingZero": false
    },
    {
      "name": "Bahreyn",
      "flag": "ğŸ‡§ğŸ‡­",
      "code": "BH",
      "dial_code": "+973",
      "needsLeadingZero": false
    },
    {
      "name": "Benin",
      "flag": "ğŸ‡§ğŸ‡¯",
      "code": "BJ",
      "dial_code": "+229",
      "needsLeadingZero": false
    },
    {
      "name": "Botsvana",
      "flag": "ğŸ‡§ğŸ‡¼",
      "code": "BW",
      "dial_code": "+267",
      "needsLeadingZero": false
    },
    {
      "name": "Burkina Faso",
      "flag": "ğŸ‡§ğŸ‡«",
      "code": "BF",
      "dial_code": "+226",
      "needsLeadingZero": false
    },
    {
      "name": "Burundi",
      "flag": "ğŸ‡§ğŸ‡®",
      "code": "BI",
      "dial_code": "+257",
      "needsLeadingZero": false
    },
    {
      "name": "Kamerun",
      "flag": "ğŸ‡¨ğŸ‡²",
      "code": "CM",
      "dial_code": "+237",
      "needsLeadingZero": false
    },
    {
      "name": "YeÅŸil Burun",
      "flag": "ğŸ‡¨ğŸ‡»",
      "code": "CV",
      "dial_code": "+238",
      "needsLeadingZero": false
    },
    {
      "name": "Orta Afrika Cumhuriyeti",
      "flag": "ğŸ‡¨ğŸ‡«",
      "code": "CF",
      "dial_code": "+236",
      "needsLeadingZero": false
    },
    {
      "name": "Ã‡ad",
      "flag": "ğŸ‡¹ğŸ‡©",
      "code": "TD",
      "dial_code": "+235",
      "needsLeadingZero": false
    },
    {
      "name": "Komorlar",
      "flag": "ğŸ‡°ğŸ‡²",
      "code": "KM",
      "dial_code": "+269",
      "needsLeadingZero": false
    },
    {
      "name": "Kongo",
      "flag": "ğŸ‡¨ğŸ‡¬",
      "code": "CG",
      "dial_code": "+242",
      "needsLeadingZero": true
    },
    {
      "name": "Kongo DRC",
      "flag": "ğŸ‡¨ğŸ‡©",
      "code": "CD",
      "dial_code": "+243",
      "needsLeadingZero": true
    },
    {
      "name": "KÄ±brÄ±s",
      "flag": "ğŸ‡¨ğŸ‡¾",
      "code": "CY",
      "dial_code": "+357",
      "needsLeadingZero": false
    },
    {
      "name": "FildiÅŸi Sahili",
      "flag": "ğŸ‡¨ğŸ‡®",
      "code": "CI",
      "dial_code": "+225",
      "needsLeadingZero": true
    },
    {
      "name": "Cibuti",
      "flag": "ğŸ‡©ğŸ‡¯",
      "code": "DJ",
      "dial_code": "+253",
      "needsLeadingZero": false
    },
    {
      "name": "MÄ±sÄ±r",
      "flag": "ğŸ‡ªğŸ‡¬",
      "code": "EG",
      "dial_code": "+20",
      "needsLeadingZero": true
    },
    {
      "name": "Ekvator Ginesi",
      "flag": "ğŸ‡¬ğŸ‡¶",
      "code": "GQ",
      "dial_code": "+240",
      "needsLeadingZero": false
    },
    {
      "name": "Eritre",
      "flag": "ğŸ‡ªğŸ‡·",
      "code": "ER",
      "dial_code": "+291",
      "needsLeadingZero": false
    },
    {
      "name": "Etiyopya",
      "flag": "ğŸ‡ªğŸ‡¹",
      "code": "ET",
      "dial_code": "+251",
      "needsLeadingZero": true
    },
    {
      "name": "Gabon",
      "flag": "ğŸ‡¬ğŸ‡¦",
      "code": "GA",
      "dial_code": "+241",
      "needsLeadingZero": true
    },
    {
      "name": "Gambiya",
      "flag": "ğŸ‡¬ğŸ‡²",
      "code": "GM",
      "dial_code": "+220",
      "needsLeadingZero": false
    },
    {
      "name": "Gana",
      "flag": "ğŸ‡¬ğŸ‡­",
      "code": "GH",
      "dial_code": "+233",
      "needsLeadingZero": true
    },
    {
      "name": "Gine",
      "flag": "ğŸ‡¬ğŸ‡³",
      "code": "GN",
      "dial_code": "+224",
      "needsLeadingZero": false
    },
    {
      "name": "Gine-Bissau",
      "flag": "ğŸ‡¬ğŸ‡¼",
      "code": "GW",
      "dial_code": "+245",
      "needsLeadingZero": false
    },
    {
      "name": "Ä°ran",
      "flag": "ğŸ‡®ğŸ‡·",
      "code": "IR",
      "dial_code": "+98",
      "needsLeadingZero": true
    },
    {
      "name": "Irak",
      "flag": "ğŸ‡®ğŸ‡¶",
      "code": "IQ",
      "dial_code": "+964",
      "needsLeadingZero": true
    },
    {
      "name": "Ä°srail",
      "flag": "ğŸ‡®ğŸ‡±",
      "code": "IL",
      "dial_code": "+972",
      "needsLeadingZero": true
    },
    {
      "name": "ÃœrdÃ¼n",
      "flag": "ğŸ‡¯ğŸ‡´",
      "code": "JO",
      "dial_code": "+962",
      "needsLeadingZero": true
    },
    {
      "name": "Kenya",
      "flag": "ğŸ‡°ğŸ‡ª",
      "code": "KE",
      "dial_code": "+254",
      "needsLeadingZero": true
    },
    {
      "name": "Kuveyt",
      "flag": "ğŸ‡°ğŸ‡¼",
      "code": "KW",
      "dial_code": "+965",
      "needsLeadingZero": false
    },
    {
      "name": "LÃ¼bnan",
      "flag": "ğŸ‡±ğŸ‡§",
      "code": "LB",
      "dial_code": "+961",
      "needsLeadingZero": true
    },
    {
      "name": "Lesoto",
      "flag": "ğŸ‡±ğŸ‡¸",
      "code": "LS",
      "dial_code": "+266",
      "needsLeadingZero": false
    },
    {
      "name": "Liberya",
      "flag": "ğŸ‡±ğŸ‡·",
      "code": "LR",
      "dial_code": "+231",
      "needsLeadingZero": true
    },
    {
      "name": "Libya",
      "flag": "ğŸ‡±ğŸ‡¾",
      "code": "LY",
      "dial_code": "+218",
      "needsLeadingZero": true
    },
    {
      "name": "Madagaskar",
      "flag": "ğŸ‡²ğŸ‡¬",
      "code": "MG",
      "dial_code": "+261",
      "needsLeadingZero": true
    },
    {
      "name": "Malavi",
      "flag": "ğŸ‡²ğŸ‡¼",
      "code": "MW",
      "dial_code": "+265",
      "needsLeadingZero": true
    },
    {
      "name": "Mali",
      "flag": "ğŸ‡²ğŸ‡±",
      "code": "ML",
      "dial_code": "+223",
      "needsLeadingZero": false
    },
    {
      "name": "Moritanya",
      "flag": "ğŸ‡²ğŸ‡·",
      "code": "MR",
      "dial_code": "+222",
      "needsLeadingZero": false
    },
    {
      "name": "Fas",
      "flag": "ğŸ‡²ğŸ‡¦",
      "code": "MA",
      "dial_code": "+212",
      "needsLeadingZero": true
    },
    {
      "name": "Mozambik",
      "flag": "ğŸ‡²ğŸ‡¿",
      "code": "MZ",
      "dial_code": "+258",
      "needsLeadingZero": false
    },
    {
      "name": "Hollanda",
      "flag": "ğŸ‡³ğŸ‡±",
      "code": "NL",
      "dial_code": "+31",
      "needsLeadingZero": false
    },
    {
      "name": "Nijer",
      "flag": "ğŸ‡³ğŸ‡ª",
      "code": "NE",
      "dial_code": "+227",
      "needsLeadingZero": true
    },
    {
      "name": "Nijerya",
      "flag": "ğŸ‡³ğŸ‡¬",
      "code": "NG",
      "dial_code": "+234",
      "needsLeadingZero": true
    },
    {
      "name": "Ruanda",
      "flag": "ğŸ‡·ğŸ‡¼",
      "code": "RW",
      "dial_code": "+250",
      "needsLeadingZero": true
    },
    {
      "name": "Suudi Arabistan",
      "flag": "ğŸ‡¸ğŸ‡¦",
      "code": "SA",
      "dial_code": "+966",
      "needsLeadingZero": true
    },
    {
      "name": "SeyÅŸeller",
      "flag": "ğŸ‡¸ğŸ‡¨",
      "code": "SC",
      "dial_code": "+248",
      "needsLeadingZero": false
    },
    {
      "name": "Sierra Leone",
      "flag": "ğŸ‡¸ğŸ‡±",
      "code": "SL",
      "dial_code": "+232",
      "needsLeadingZero": false
    },
    {
      "name": "Somali",
      "flag": "ğŸ‡¸ğŸ‡´",
      "code": "SO",
      "dial_code": "+252",
      "needsLeadingZero": false
    },
    {
      "name": "GÃ¼ney Afrika",
      "flag": "ğŸ‡¿ğŸ‡¦",
      "code": "ZA",
      "dial_code": "+27",
      "needsLeadingZero": true
    },
    {
      "name": "GÃ¼ney Sudan",
      "flag": "ğŸ‡¸ğŸ‡¸",
      "code": "SS",
      "dial_code": "+211",
      "needsLeadingZero": false
    },
    {
      "name": "Sudan",
      "flag": "ğŸ‡¸ğŸ‡©",
      "code": "SD",
      "dial_code": "+249",
      "needsLeadingZero": false
    },
    {
      "name": "Esvatini",
      "flag": "ğŸ‡¸ğŸ‡¿",
      "code": "SZ",
      "dial_code": "+268",
      "needsLeadingZero": false
    },
    {
      "name": "Tanzanya",
      "flag": "ğŸ‡¹ğŸ‡¿",
      "code": "TZ",
      "dial_code": "+255",
      "needsLeadingZero": true
    },
    {
      "name": "Togo",
      "flag": "ğŸ‡¹ğŸ‡¬",
      "code": "TG",
      "dial_code": "+228",
      "needsLeadingZero": false
    },
    {
      "name": "Tunus",
      "flag": "ğŸ‡¹ğŸ‡³",
      "code": "TN",
      "dial_code": "+216",
      "needsLeadingZero": false
    },
    {
      "name": "Uganda",
      "flag": "ğŸ‡ºğŸ‡¬",
      "code": "UG",
      "dial_code": "+256",
      "needsLeadingZero": true
    },
    {
      "name": "Zambiya",
      "flag": "ğŸ‡¿ğŸ‡²",
      "code": "ZM",
      "dial_code": "+260",
      "needsLeadingZero": true
    },
    {
      "name": "Zimbabve",
      "flag": "ğŸ‡¿ğŸ‡¼",
      "code": "ZW",
      "dial_code": "+263",
      "needsLeadingZero": false
    }
  ]
}
