{
  "language": "Idioma",
  "home": {
    "title": "RamsÃ©s",
    "welcome": "Bem-vindo ao RamsÃ©s, seu aplicativo para a Ãfrica e o Oriente MÃ©dio!",
    "startButton": "ComeÃ§ar",
    "terms": "Eu concordo com todos os termos e condiÃ§Ãµes"
  },
  "register": {
    "title": "NÃºmero de Telefone",
    "body": "Por favor, insira seu nÃºmero de telefone \n para continuar",
    "textInput": "NÃºmero de telefone",
    "sendCode": "Enviar CÃ³digo"
  },
  "placeholder": {
    "title": "NÃºmero de telefone"
  },
  "invalidNumAlert": {
    "body": "Formato de nÃºmero de telefone invÃ¡lido"
  },
  "alertTermsError": {
    "body": "Por favor, concorde com os termos e condiÃ§Ãµes"
  },
  "alertConfirm": {
    "title": "ConfirmaÃ§Ã£o do NÃºmero de Telefone",
    "body": "NÃ³s enviaremos um cÃ³digo de verificaÃ§Ã£o para o seguinte nÃºmero:"
  },
  "codeConfirmation": {
    "title": "Digite Seu CÃ³digo",
    "body": "Digite o cÃ³digo enviado a vocÃª via SMS \n para completar o processo",
    "confirmButton": "Confirmar",
    "reSendCode": "Reenviar CÃ³digo",
    "reSendinCode": "Reenviar em"
  },
  "success": {
    "body": "Sua conta foi verificada com sucesso!!",
    "confirmButton": "Continuar"
  },
  "countries": [
    {
      "name": "ArgÃ©lia",
      "flag": "ğŸ‡©ğŸ‡¿",
      "code": "DZ",
      "dial_code": "+213",
      "needsLeadingZero": true
    },
    {
      "name": "Angola",
      "flag": "ğŸ‡¦ğŸ‡´",
      "code": "AO",
      "dial_code": "+244",
      "needsLeadingZero": false
    },
    {
      "name": "Bahrein",
      "flag": "ğŸ‡§ğŸ‡­",
      "code": "BH",
      "dial_code": "+973",
      "needsLeadingZero": false
    },
    {
      "name": "Benin",
      "flag": "ğŸ‡§ğŸ‡¯",
      "code": "BJ",
      "dial_code": "+229",
      "needsLeadingZero": false
    },
    {
      "name": "Botswana",
      "flag": "ğŸ‡§ğŸ‡¼",
      "code": "BW",
      "dial_code": "+267",
      "needsLeadingZero": false
    },
    {
      "name": "Burquina Faso",
      "flag": "ğŸ‡§ğŸ‡«",
      "code": "BF",
      "dial_code": "+226",
      "needsLeadingZero": false
    },
    {
      "name": "Burundi",
      "flag": "ğŸ‡§ğŸ‡®",
      "code": "BI",
      "dial_code": "+257",
      "needsLeadingZero": false
    },
    {
      "name": "CamarÃµes",
      "flag": "ğŸ‡¨ğŸ‡²",
      "code": "CM",
      "dial_code": "+237",
      "needsLeadingZero": false
    },
    {
      "name": "Cabo Verde",
      "flag": "ğŸ‡¨ğŸ‡»",
      "code": "CV",
      "dial_code": "+238",
      "needsLeadingZero": false
    },
    {
      "name": "RepÃºblica Centro-Africana",
      "flag": "ğŸ‡¨ğŸ‡«",
      "code": "CF",
      "dial_code": "+236",
      "needsLeadingZero": false
    },
    {
      "name": "Chade",
      "flag": "ğŸ‡¹ğŸ‡©",
      "code": "TD",
      "dial_code": "+235",
      "needsLeadingZero": false
    },
    {
      "name": "Comores",
      "flag": "ğŸ‡°ğŸ‡²",
      "code": "KM",
      "dial_code": "+269",
      "needsLeadingZero": false
    },
    {
      "name": "Congo",
      "flag": "ğŸ‡¨ğŸ‡¬",
      "code": "CG",
      "dial_code": "+242",
      "needsLeadingZero": true
    },
    {
      "name": "RepÃºblica DemocrÃ¡tica do Congo",
      "flag": "ğŸ‡¨ğŸ‡©",
      "code": "CD",
      "dial_code": "+243",
      "needsLeadingZero": true
    },
    {
      "name": "Chipre",
      "flag": "ğŸ‡¨ğŸ‡¾",
      "code": "CY",
      "dial_code": "+357",
      "needsLeadingZero": false
    },
    {
      "name": "Costa do Marfim",
      "flag": "ğŸ‡¨ğŸ‡®",
      "code": "CI",
      "dial_code": "+225",
      "needsLeadingZero": true
    },
    {
      "name": "Djibuti",
      "flag": "ğŸ‡©ğŸ‡¯",
      "code": "DJ",
      "dial_code": "+253",
      "needsLeadingZero": false
    },
    {
      "name": "Egito",
      "flag": "ğŸ‡ªğŸ‡¬",
      "code": "EG",
      "dial_code": "+20",
      "needsLeadingZero": true
    },
    {
      "name": "GuinÃ© Equatorial",
      "flag": "ğŸ‡¬ğŸ‡¶",
      "code": "GQ",
      "dial_code": "+240",
      "needsLeadingZero": false
    },
    {
      "name": "Eritreia",
      "flag": "ğŸ‡ªğŸ‡·",
      "code": "ER",
      "dial_code": "+291",
      "needsLeadingZero": false
    },
    {
      "name": "EtiÃ³pia",
      "flag": "ğŸ‡ªğŸ‡¹",
      "code": "ET",
      "dial_code": "+251",
      "needsLeadingZero": true
    },
    {
      "name": "GabÃ£o",
      "flag": "ğŸ‡¬ğŸ‡¦",
      "code": "GA",
      "dial_code": "+241",
      "needsLeadingZero": true
    },
    {
      "name": "GÃ¢mbia",
      "flag": "ğŸ‡¬ğŸ‡²",
      "code": "GM",
      "dial_code": "+220",
      "needsLeadingZero": false
    },
    {
      "name": "Gana",
      "flag": "ğŸ‡¬ğŸ‡­",
      "code": "GH",
      "dial_code": "+233",
      "needsLeadingZero": true
    },
    {
      "name": "GuinÃ©",
      "flag": "ğŸ‡¬ğŸ‡³",
      "code": "GN",
      "dial_code": "+224",
      "needsLeadingZero": false
    },
    {
      "name": "GuinÃ©-Bissau",
      "flag": "ğŸ‡¬ğŸ‡¼",
      "code": "GW",
      "dial_code": "+245",
      "needsLeadingZero": false
    },
    {
      "name": "IrÃ£",
      "flag": "ğŸ‡®ğŸ‡·",
      "code": "IR",
      "dial_code": "+98",
      "needsLeadingZero": true
    },
    {
      "name": "Iraque",
      "flag": "ğŸ‡®ğŸ‡¶",
      "code": "IQ",
      "dial_code": "+964",
      "needsLeadingZero": true
    },
    {
      "name": "Israel",
      "flag": "ğŸ‡®ğŸ‡±",
      "code": "IL",
      "dial_code": "+972",
      "needsLeadingZero": true
    },
    {
      "name": "JordÃ¢nia",
      "flag": "ğŸ‡¯ğŸ‡´",
      "code": "JO",
      "dial_code": "+962",
      "needsLeadingZero": true
    },
    {
      "name": "QuÃªnia",
      "flag": "ğŸ‡°ğŸ‡ª",
      "code": "KE",
      "dial_code": "+254",
      "needsLeadingZero": true
    },
    {
      "name": "Kuwait",
      "flag": "ğŸ‡°ğŸ‡¼",
      "code": "KW",
      "dial_code": "+965",
      "needsLeadingZero": false
    },
    {
      "name": "LÃ­bano",
      "flag": "ğŸ‡±ğŸ‡§",
      "code": "LB",
      "dial_code": "+961",
      "needsLeadingZero": true
    },
    {
      "name": "Lesoto",
      "flag": "ğŸ‡±ğŸ‡¸",
      "code": "LS",
      "dial_code": "+266",
      "needsLeadingZero": false
    },
    {
      "name": "LibÃ©ria",
      "flag": "ğŸ‡±ğŸ‡·",
      "code": "LR",
      "dial_code": "+231",
      "needsLeadingZero": true
    },
    {
      "name": "LÃ­bia",
      "flag": "ğŸ‡±ğŸ‡¾",
      "code": "LY",
      "dial_code": "+218",
      "needsLeadingZero": true
    },
    {
      "name": "Madagascar",
      "flag": "ğŸ‡²ğŸ‡¬",
      "code": "MG",
      "dial_code": "+261",
      "needsLeadingZero": true
    },
    {
      "name": "Malawi",
      "flag": "ğŸ‡²ğŸ‡¼",
      "code": "MW",
      "dial_code": "+265",
      "needsLeadingZero": true
    },
    {
      "name": "Mali",
      "flag": "ğŸ‡²ğŸ‡±",
      "code": "ML",
      "dial_code": "+223",
      "needsLeadingZero": true
    },
    {
      "name": "MauritÃ¢nia",
      "flag": "ğŸ‡²ğŸ‡·",
      "code": "MR",
      "dial_code": "+222",
      "needsLeadingZero": false
    },
    {
      "name": "MaurÃ­cio",
      "flag": "ğŸ‡²ğŸ‡º",
      "code": "MU",
      "dial_code": "+230",
      "needsLeadingZero": false
    },
    {
      "name": "Marrocos",
      "flag": "ğŸ‡²ğŸ‡¦",
      "code": "MA",
      "dial_code": "+212",
      "needsLeadingZero": true
    },
    {
      "name": "MoÃ§ambique",
      "flag": "ğŸ‡²ğŸ‡¿",
      "code": "MZ",
      "dial_code": "+258",
      "needsLeadingZero": false
    },
    {
      "name": "NamÃ­bia",
      "flag": "ğŸ‡³ğŸ‡¦",
      "code": "NA",
      "dial_code": "+264",
      "needsLeadingZero": false
    },
    {
      "name": "NigÃ©ria",
      "flag": "ğŸ‡³ğŸ‡¬",
      "code": "NG",
      "dial_code": "+234",
      "needsLeadingZero": true
    },
    {
      "name": "Ruanda",
      "flag": "ğŸ‡·ğŸ‡¼",
      "code": "RW",
      "dial_code": "+250",
      "needsLeadingZero": true
    },
    {
      "name": "ArÃ¡bia Saudita",
      "flag": "ğŸ‡¸ğŸ‡¦",
      "code": "SA",
      "dial_code": "+966",
      "needsLeadingZero": true
    },
    {
      "name": "Seicheles",
      "flag": "ğŸ‡¸ğŸ‡¨",
      "code": "SC",
      "dial_code": "+248",
      "needsLeadingZero": false
    },
    {
      "name": "Serra Leoa",
      "flag": "ğŸ‡¸ğŸ‡±",
      "code": "SL",
      "dial_code": "+232",
      "needsLeadingZero": false
    },
    {
      "name": "SomÃ¡lia",
      "flag": "ğŸ‡¸ğŸ‡´",
      "code": "SO",
      "dial_code": "+252",
      "needsLeadingZero": false
    },
    {
      "name": "Ãfrica do Sul",
      "flag": "ğŸ‡¿ğŸ‡¦",
      "code": "ZA",
      "dial_code": "+27",
      "needsLeadingZero": true
    },
    {
      "name": "SudÃ£o do Sul",
      "flag": "ğŸ‡¸ğŸ‡¸",
      "code": "SS",
      "dial_code": "+211",
      "needsLeadingZero": false
    },
    {
      "name": "SudÃ£o",
      "flag": "ğŸ‡¸ğŸ‡©",
      "code": "SD",
      "dial_code": "+249",
      "needsLeadingZero": false
    },
    {
      "name": "SuazilÃ¢ndia",
      "flag": "ğŸ‡¸ğŸ‡¿",
      "code": "SZ",
      "dial_code": "+268",
      "needsLeadingZero": false
    },
    {
      "name": "TanzÃ¢nia",
      "flag": "ğŸ‡¹ğŸ‡¿",
      "code": "TZ",
      "dial_code": "+255",
      "needsLeadingZero": true
    },
    {
      "name": "Togo",
      "flag": "ğŸ‡¹ğŸ‡¬",
      "code": "TG",
      "dial_code": "+228",
      "needsLeadingZero": false
    },
    {
      "name": "TunÃ­sia",
      "flag": "ğŸ‡¹ğŸ‡³",
      "code": "TN",
      "dial_code": "+216",
      "needsLeadingZero": false
    },
    {
      "name": "Uganda",
      "flag": "ğŸ‡ºğŸ‡¬",
      "code": "UG",
      "dial_code": "+256",
      "needsLeadingZero": true
    },
    {
      "name": "ZÃ¢mbia",
      "flag": "ğŸ‡¿ğŸ‡²",
      "code": "ZM",
      "dial_code": "+260",
      "needsLeadingZero": true
    },
    {
      "name": "ZimbÃ¡bue",
      "flag": "ğŸ‡¿ğŸ‡¼",
      "code": "ZW",
      "dial_code": "+263",
      "needsLeadingZero": false
    }
  ]
}
